nom,type,address,cp,ville,region,telephone,email,site,desc
1 ERE COMPAGNIE DE CHAUMONT,Tir à l'arc,,52000,CHAUMONT,Grand Est,,archersdechaumont@gmail.com,,Réservation obligatoire. Une séance offerte sur remise de votre pass. Offre non cumulable pour une même personne. A partir de 7 ans. Hors vacances scolaires. 
45EMES FOOTBALL AMERICAIN DE CHATEAUNEUF DU RHONE,Football Américain,Terrain de Rugby chemin le Mas,26780,CHATEAUNEUF DU RHONE,Auvergne-Rhône-Alpes,,523@fffa.org,,Réservation obligatoire. Une séance offerte sur remise de votre pass. Offre non cumulable pour une même personne. A partir de 8 ans.
47 FIGHT CLUB,Boxe Française,,47550,BOÉ,Nouvelle-Aquitaine,0784424456,fightclub47@hotmail.com,,Réservation obligatoire. Une séance offerte sur remise de votre pass. Offre non cumulable pour une même personne. A partir de 7 ans.
A S D P T SAVATE MENTON,Boxe Française,,06500,MENTON,Provence-Alpes-Côte d'Azur,,asdptmenton@gmail.com,http://asdptmenton.clubeo.com,Réservation obligatoire. Une séance offerte sur remise de votre pass. Offre non cumulable pour une même personne. A partir de 7 ans.
A T A Q,Tir à l'arc,,29300,QUIMPERLÉ,Bretagne,,ataq.quimperle@gmail.com,,Réservation obligatoire. Une séance offerte sur remise de votre pass. Offre non cumulable pour une même personne. A partir de 7 ans. Hors vacances scolaires. 
A.N.G,Boxe Française,,68170,RIXHEIM,Grand Est,0667286868,mekki.hanachi@sfr.fr,,Réservation obligatoire. Une séance offerte sur remise de votre pass. Offre non cumulable pour une même personne. A partir de 7 ans.
A.S.ROUEN UNIVERSITÉ CLUB,Hockey sur Gazon,,76130,MONT ST AIGNAN,Normandie,,entraineur.hockey@asrouenuc.com,,Réservation obligatoire. Une séance offerte sur remise de votre pass. Offre non cumulable pour une même personne. A partir de 6 ans.
AC BOBIGNY 93 RUGBY,Rugby,13 avenue du Président Salvador Allende,93000,BOBIGNY,Île-de-France,0148954740,contact@bobigny93rugby.fr,http://www.bobigny93rugby.fr,Réservation obligatoire. Trois séances offertes sur remise du pass. Offre non cumulable pour une même personne. A partir de 8 ans.
AC NICE,Tir à l'arc,,06340,LA TRINITÉ,Provence-Alpes-Côte d'Azur,,arc-club-nice@wanadoo.fr,,Réservation obligatoire. Une séance offerte sur remise de votre pass. Offre non cumulable pour une même personne. A partir de 7 ans. Hors vacances scolaires. 
ACADEMIE BOXING CLUB,Boxe Française,,94600,CHOISY-LE-ROI,Île-de-France,0607345446,raymond.tournemelle@wanadoo.fr,,Réservation obligatoire. Une séance offerte sur remise de votre pass. Offre non cumulable pour une même personne. A partir de 7 ans.
ACADEMIE DE SANTE,Séance parcours santé urbain,3 rue Louis Armand,74000,ANNECY,Auvergne-Rhône-Alpes,0749010400,academiedelasante@gmail.com,http://www.academiedelasante.fr,Réservation obligatoire. Une séance offerte sur remise de votre pass. Offre non cumulable pour une même personne. A partir de 14 ans.
ACADÉMIE VILLENEVOISE DES SPORTS DE COMBAT,Boxe Française,,66180,VILLENEUVE  DE  LA  RAHO,Occitanie,0468558296,raho@cegetel.net,,Réservation obligatoire. Une séance offerte sur remise de votre pass. Offre non cumulable pour une même personne. A partir de 7 ans.
AES CHAMPS SUR MARNE,Boxe Française,,77420,CHAMPS  SUR  MARNE,Île-de-France,,aes-boxingclubchampssurmarne@orange.fr,http://savate-champs.fr,Réservation obligatoire. Une séance offerte sur remise de votre pass. Offre non cumulable pour une même personne. A partir de 7 ans.
AIKI 3,Aikido,19 Rue De La Tour Boileau,10000,TROYES ,Grand Est,,michel.czerniak@gmail.com,,Réservation obligatoire. Une séance offerte sur remise de votre pass. Offre non cumulable pour une même personne. A partir de 8 ans.
AIKI NO MICHI,Aikido,Sous La Tribune du Stade De Foot Du François,97240,FRANCOIS ,Martinique ,,luislauhon@hotmail.com,,Réservation obligatoire. Une séance offerte sur remise de votre pass. Offre non cumulable pour une même personne. A partir de 8 ans.
AIKIDO - A M SOUFFLENHEIM,Aikido,Rue Du Chemin De Fer,67620,SOUFFLENHEIM ,Grand Est,,hanns.robert@orange.fr,,Réservation obligatoire. Une séance offerte sur remise de votre pass. Offre non cumulable pour une même personne. A partir de 8 ans.
AIKIDO CHATELLERAULT,Aikido,Gymnase Du Verger Rue Jean Pidoux,86100,CHATELLERAULT ,Nouvelle-Aquitaine,,a.bougnoux@free.fr,,Réservation obligatoire. Une séance offerte sur remise de votre pass. Offre non cumulable pour une même personne. A partir de 8 ans.
AIKIDO CLUB AMIENOIS,Aikido,Route De Bacouël-Sur Selle,80160,PLACHY BUYON ,Hauts-de-France,,serge.agbo-sonan@ac-amiens.fr,,Réservation obligatoire. Une séance offerte sur remise de votre pass. Offre non cumulable pour une même personne. A partir de 8 ans.
AIKIDO CLUB DE LA BIEVRE,Aikido,Budokan Des 2 Sarres,57560,ABRESCHVILLER ,Grand Est,,boudhableu@gmail.com,,Réservation obligatoire. Une séance offerte sur remise de votre pass. Offre non cumulable pour une même personne. A partir de 8 ans.
AIKIDO CLUB DE ROCHEFORT,Aikido,Avenue Gambetta,17300,ROCHEFORT ,Nouvelle-Aquitaine,,aikido.rochefort@orange.fr,,Réservation obligatoire. Une séance offerte sur remise de votre pass. Offre non cumulable pour une même personne. A partir de 8 ans.
AIKIDO CLUB DE ST LOUIS,Aikido,Sportenum Allee Des Sports,68300,SAINT LOUIS ,Grand Est,,aikido.saintlouis@orange.fr,,Réservation obligatoire. Une séance offerte sur remise de votre pass. Offre non cumulable pour une même personne. A partir de 8 ans.
AIKIDO CLUB MONTBELIARD,Aikido,Complexe Sportif De La Lizaine - Route D'Hericourt,25200,MONTBELIARD ,Bourgogne-Franche-Comté,,mairedeglise.rene@gmail.com,,Réservation obligatoire. Une séance offerte sur remise de votre pass. Offre non cumulable pour une même personne. A partir de 8 ans.
AIKIDO CLUB ROUEN,Aikido,112 Bd De L'Europe Piscine Diderot,76000,ROUEN ,Normandie,,caltot.beatrice@neuf.fr,,Réservation obligatoire. Une séance offerte sur remise de votre pass. Offre non cumulable pour une même personne. A partir de 8 ans.
AIKIDO CLUB THONON,Aikido,Dojo Maison Des Sports,74200,THONON LES BAINS ,Auvergne-Rhône-Alpes,,coneggo@orange.fr,,Réservation obligatoire. Une séance offerte sur remise de votre pass. Offre non cumulable pour une même personne. A partir de 8 ans.
AIKIDO DE BOURG EN BRESSE,Aikido,Cosec Favier 1 Rue Du Docteur Duby,01000,BOURG EN BRESSE ,Auvergne-Rhône-Alpes,,alvesdavid91@hotmail.fr,,Réservation obligatoire. Une séance offerte sur remise de votre pass. Offre non cumulable pour une même personne. A partir de 8 ans.
AIKIDO DINARD,Aikido,Dojo Du Cosec - 29 Rue Gouyon Matignon,35800,DINARD ,Bretagne,,aikidodinard@free.fr,,Réservation obligatoire. Une séance offerte sur remise de votre pass. Offre non cumulable pour une même personne. A partir de 8 ans.
AIKIDO GUJANAIS,Aikido,45 Rue Pierre Corneille,33470,GUJAN MESTRAS ,Nouvelle-Aquitaine,,mapajeanmichel@gmail.com,,Réservation obligatoire. Une séance offerte sur remise de votre pass. Offre non cumulable pour une même personne. A partir de 8 ans.
AIKIDO REOLAIS,Aikido,Chemin De Blasignon,33190,LA REOLE ,Nouvelle-Aquitaine,,aikidolareole@outlook.fr,,Réservation obligatoire. Une séance offerte sur remise de votre pass. Offre non cumulable pour une même personne. A partir de 8 ans.
AIKIKAI MARTINIQUE,Aikido,Dojo De La Varangue - 36 Bld Amilcar Cabral,97200,FORT DE FRANCE ,Martinique ,,gigi.aiki@orange.fr,,Réservation obligatoire. Une séance offerte sur remise de votre pass. Offre non cumulable pour une même personne. A partir de 8 ans.
ALERTE SPORTIVE DE FONDETTES,Athlétisme,Allée de la Poupardière,37230,FONDETTES,Centre-Val de Loire,0247499353,accueil-asf@asfondettes.fr,,Réservation obligatoire. Une séance offerte sur remise de votre pass. Offre non cumulable pour une même personne. A partir de 7 ans.
ALERTE SPORTIVE DE FONDETTES,Football,Allée de la Poupardière,37230,FONDETTES,Centre-Val de Loire,0247499353,accueil-asf@asfondettes.fr,,Réservation obligatoire. Une séance offerte sur remise de votre pass. Offre non cumulable pour une même personne. A partir de 4 ans.
ALERTE SPORTIVE DE FONDETTES,Judo,Allée de la Poupardière,37230,FONDETTES,Centre-Val de Loire,0247499353,accueil-asf@asfondettes.fr,,Réservation obligatoire. Une séance offerte sur remise de votre pass. Offre non cumulable pour une même personne. A partir de 4 ans.
ALERTE SPORTIVE DE FONDETTES,Marche nordique,Allée de la Poupardière,37230,FONDETTES,Centre-Val de Loire,0247499353,accueil-asf@asfondettes.fr,,Réservation obligatoire. Une séance offerte sur remise de votre pass. Offre non cumulable pour une même personne. A partir de 14 ans.
ALERTE SPORTIVE DE FONDETTES,VTT,Allée de la Poupardière,37230,FONDETTES,Centre-Val de Loire,0247499353,accueil-asf@asfondettes.fr,,Réservation obligatoire. Une séance offerte sur remise de votre pass. Offre non cumulable pour une même personne. A partir de 10 ans.
AMAZONES,Cheerleading,Stade Champfleuri,45200,MONTARGIS,Centre-Val de Loire,,298@fffa.org,,Réservation obligatoire. Une séance offerte sur remise de votre pass. Offre non cumulable pour une même personne. A partir de 6 ans.
AMICALE DES HOCKEYEURS DE MEAUX,Hockey sur Gazon,,77100,NANTEUIL LES MEAUX,Île-de-France,,sylvain.roussel@ca-paris.fr,,Réservation obligatoire. Une séance offerte sur remise de votre pass. Offre non cumulable pour une même personne. A partir de 6 ans.
AMICALE SPORTIVE DE BLAINVILLE-CREVON,Hockey sur Gazon,,76116,BLAINVILLE CREVON,Normandie,,stevendelphine@hotmail.fr,,Réservation obligatoire. Une séance offerte sur remise de votre pass. Offre non cumulable pour une même personne. A partir de 6 ans.
AMIENS BOXE AMBITIONS,Boxe Française,,80000,AMIENS,Hauts-de-France,,boubou80000@yahoo.fr,,Réservation obligatoire. Une séance offerte sur remise de votre pass. Offre non cumulable pour une même personne. A partir de 7 ans.
AMITIE AIKIDO NOCEENNE,Aikido,"Gymnase Henri Deglane, Rue D'Anjou",93330,NEUILLY SUR MARNE ,Île-de-France,,aikido.nsm@gmail.com,,Réservation obligatoire. Une séance offerte sur remise de votre pass. Offre non cumulable pour une même personne. A partir de 8 ans.
ANGES,Cheerleading,Plaine des jeux (terrain N4),40000,MONT DE MARSAN,Nouvelle-Aquitaine,,332@fffa.org,,Réservation obligatoire. Une séance offerte sur remise de votre pass. Offre non cumulable pour une même personne. A partir de 6 ans.
ARC CLUB COURVILLOIS,Tir à l'arc,,28190,BILLANCELLES,Centre-Val de Loire,,Tresorier@arc-club-courvillois.com,,Réservation obligatoire. Une séance offerte sur remise de votre pass. Offre non cumulable pour une même personne. A partir de 7 ans. Hors vacances scolaires. 
ARC CLUB DE STE MAXIME,Tir à l'arc,,83120,LE PLAN-DE-LA-TOUR,Provence-Alpes-Côte d'Azur,,bureau@arcclubdesaintemaxime.fr,,Réservation obligatoire. Une séance offerte sur remise de votre pass. Offre non cumulable pour une même personne. A partir de 7 ans. Hors vacances scolaires. 
ARC CLUB MILHAUDOIS,Tir à l'arc,,30540,MILHAUD,Occitanie,,arc.club.milhaudois@gmail.com,,Réservation obligatoire. Une séance offerte sur remise de votre pass. Offre non cumulable pour une même personne. A partir de 7 ans. Hors vacances scolaires. 
ARCHERS DE KERVIGNAC,Tir à l'arc,,56700,KERVIGNAC,Bretagne,,archers.kervignac@gmail.com,,Réservation obligatoire. Une séance offerte sur remise de votre pass. Offre non cumulable pour une même personne. A partir de 7 ans. Hors vacances scolaires. 
ARCHERS DE LA CHOUANNERIE,Tir à l'arc,,85400,CHASNAIS,Pays de la Loire,,archers.delachouannerie@orange.fr,,Réservation obligatoire. Une séance offerte sur remise de votre pass. Offre non cumulable pour une même personne. A partir de 7 ans. Hors vacances scolaires. 
ARCHERS DE LA MEE,Tir à l'arc,,44110,CHÂTEAUBRIANT,Pays de la Loire,,p.comcom4@orange.fr,,Réservation obligatoire. Une séance offerte sur remise de votre pass. Offre non cumulable pour une même personne. A partir de 7 ans. Hors vacances scolaires. 
ARCHERS DE RICHEMONT,Tir à l'arc,,56000,VANNES,Bretagne,,archersderichemont56@gmail.com,,Réservation obligatoire. Une séance offerte sur remise de votre pass. Offre non cumulable pour une même personne. A partir de 7 ans. Hors vacances scolaires. 
ARCHERS DU BASSIN D'ARCACHON,Tir à l'arc,,33260,LA TESTE-DE-BUCH,Nouvelle-Aquitaine,,archersdubassin@free.fr,,Réservation obligatoire. Une séance offerte sur remise de votre pass. Offre non cumulable pour une même personne. A partir de 7 ans. Hors vacances scolaires. 
ARCHERS LES JEUNES ,Tir à l'arc,,62810,AVESNES-LE-COMTE,Hauts-de-France,0750226007,lucas.heirman62@gmail.com,,Réservation obligatoire. Une séance offerte sur remise de votre pass. Offre non cumulable pour une même personne. A partir de 8 ans.
AS SPAY OMNISPORTS,Multisports enfants,,72700,SPAY,Pays de la Loire,0629798894,asso.spay@gmail.com,,Réservation obligatoire. Une séance offerte sur remise de votre pass. Offre non cumulable pour une même personne. A partir de 4 ans.
ASBF,Boxe Française,,87240,AMBAZAC,Nouvelle-Aquitaine,,ambazacboxe@gmail.com,http://villeambazac.free,Réservation obligatoire. Une séance offerte sur remise de votre pass. Offre non cumulable pour une même personne. A partir de 7 ans.
ASBG LA FLECHE,Haltérophilie,,72200,LA FLECHE,Pays de la Loire,0781866319,pichondan@aol.com,,Réservation obligatoire. Une séance offerte sur remise de votre pass. Offre non cumulable pour une même personne. A partir de 8 ans.
ASE CORSAIRES,Cheerleading,Complexe Sportif du parc des loges,91000,EVRY,Île-de-France,,085@fffa.org,,Réservation obligatoire. Une séance offerte sur remise de votre pass. Offre non cumulable pour une même personne. A partir de 6 ans.
ASH TULLE,Haltérophilie,,19000,TULLE,Nouvelle-Aquitaine,0675710297,remi.seijolopez@sfr.fr,,Réservation obligatoire. Une séance offerte sur remise de votre pass. Offre non cumulable pour une même personne. A partir de 8 ans.
ASNIERES HOCKEY SUR GAZON,Hockey sur Gazon,,92600,ASNIERES SUR SEINE,Île-de-France,,contact@asnieres-hockey.com,,Réservation obligatoire. Une séance offerte sur remise de votre pass. Offre non cumulable pour une même personne. A partir de 6 ans.
ASPTT DRAGUIGNAN,Haltérophilie,,83300,DRAGUIGNAN,Provence-Alpes-Côte d'Azur,0664999502,eddyvietman@gmail.com,,Réservation obligatoire. Une séance offerte sur remise de votre pass. Offre non cumulable pour une même personne. A partir de 8 ans.
ASPTT LILLE METROPOLE,Haltérophilie,,59000,LILLE,Hauts-de-France,0320541190,feumeni@gmail.com,,Réservation obligatoire. Une séance offerte sur remise de votre pass. Offre non cumulable pour une même personne. A partir de 8 ans.
ASS SPORT CULTURELLE HANCHES BAD,Badminton,,28130,HANCHES,Centre-Val de Loire,,president@aschbadminton.fr,,Réservation obligatoire. Une séance offerte sur remise de votre pass. Offre non cumulable pour une même personne. A partir de 6 ans.
ASSO MONTENAY SECTION BAD,Badminton,,53500 ,MONTENAY,Pays de la Loire,,allainstaf@free.fr,,Réservation obligatoire. Une séance offerte sur remise de votre pass. Offre non cumulable pour une même personne. A partir de 6 ans.
ASSOCIATION CARIBEENNE DE TIR A L'ARC,Tir à l'arc,,97200,FORT DE FRANCE ,Martinique ,,clubacta972@gmail.com,,Réservation obligatoire. Une séance offerte sur remise de votre pass. Offre non cumulable pour une même personne. A partir de 7 ans. Hors vacances scolaires. 
ASSOCIATION DE FOOTBALL AMERICAIN LES TERRIBLES,Cheerleading,Stade de Sainte Croix Hague,50100,CHERBOURG,Normandie,,540@fffa.org,,Réservation obligatoire. Une séance offerte sur remise de votre pass. Offre non cumulable pour une même personne. A partir de 6 ans.
ASSOCIATION DE FOOTBALL AMERICAIN SEA DEVILS,Flag Football,,17000,LA ROCHELLE,Nouvelle-Aquitaine,,535@fffa.org,,Réservation obligatoire. Une séance offerte sur remise de votre pass. Offre non cumulable pour une même personne. A partir de 6 ans.
ASSOCIATION DE TIR A L'ARC DE CHENOVE,Tir à l'arc,,21300,CHENÔVE,Bourgogne-Franche-Comté,,atacchenove21@gmail.com,,Réservation obligatoire. Une séance offerte sur remise de votre pass. Offre non cumulable pour une même personne. A partir de 7 ans. Hors vacances scolaires. 
ASSOCIATION SPORTIVE BADMINTON OUVEILLAN,Badminton,,11590,OUVEILLAN,Occitanie,,a.s.b.o.ouveillan@gmail.com,,Réservation obligatoire. Une séance offerte sur remise de votre pass. Offre non cumulable pour une même personne. A partir de 6 ans.
ASSOCIATION SPORTIVE D'HERY,Badminton,,89550,HERY,Bourgogne-Franche-Comté,,Badhery89@gmail.com,,Réservation obligatoire. Une séance offerte sur remise de votre pass. Offre non cumulable pour une même personne. A partir de 6 ans.
ASSOCIATION SPORTIVE FONTONNE D'ANTIBES,Hockey sur Gazon,,06600,ANTIBES,Provence-Alpes-Côte d'Azur,,winifredrinck@gmail.com,,Réservation obligatoire. Une séance offerte sur remise de votre pass. Offre non cumulable pour une même personne. A partir de 6 ans.
ASSOCIATION SPORTIVE PARIS TEAM 75,Cheerleading,Complexe Sportif Suzanne Lenglen,75015,PARIS 15,Île-de-France,,478@fffa.org,,Réservation obligatoire. Une séance offerte sur remise de votre pass. Offre non cumulable pour une même personne. A partir de 6 ans.
ASSOCIATION SPORTIVE VILLEURBANNE EVEIL LYONNAIS,Hockey sur Gazon,,69100,VILLEURBANNE,Auvergne-Rhône-Alpes,,francoisyon@gmail.com,,Réservation obligatoire. Une séance offerte sur remise de votre pass. Offre non cumulable pour une même personne. A partir de 6 ans.
ASSOCIATION SPORTS ET LOISIRS MUHLBACH SUR MUNSTER,Badminton,,68380,MUHLBACH SUR MUNSTER,Grand Est,,herreinbold@gmail.com,,Réservation obligatoire. Une séance offerte sur remise de votre pass. Offre non cumulable pour une même personne. A partir de 6 ans.
ASTS,Boxe Française,,77610,FONTENAY-TRÉSIGNY,Île-de-France,,boxe77610@gmail.com,http://www.boxe77610.fr,Réservation obligatoire. Une séance offerte sur remise de votre pass. Offre non cumulable pour une même personne. A partir de 7 ans.
ATHLE NORDIK TRAIL EN PROVINOIS,Marche nordique,6 rue du chêne ,77171,MELZ SUR SEINE    ,Île-de-France,0664193169,contact@athle-nordik-trail-provinois.fr,,Réservation obligatoire. Une séance offerte sur remise de votre pass. Offre non cumulable pour une même personne. A partir de 14 ans.
ATHLETIC BOXING CLUB,Boxe Française,,33820,BRAUD ET ST LOUIS,Nouvelle-Aquitaine,0640451221,stciersboxingclub@gmail.com,,Réservation obligatoire. Une séance offerte sur remise de votre pass. Offre non cumulable pour une même personne. A partir de 7 ans.
ATHLETIC BOXING CLUB 56,Boxe Française,,56000,VANNES,Bretagne,,fuentemaribel@yahoo.fr,https://www.athleticboxingclub56.fr/,Réservation obligatoire. Une séance offerte sur remise de votre pass. Offre non cumulable pour une même personne. A partir de 7 ans.
AU FIL DE L'OSME,Jeu de piste ludique,,16140,AIGRE - ST-FRAIGNE,Nouvelle-Aquitaine,,contact@les-challenges-bn.fr,http://www.randoland.fr/bn,"Recevez un code pour télécharger ce parcours et deux autres dans la région de votre choix. Chaque parcours comprend une carte pour se repérer, des jeux à réaliser durant la randonnée pour vitaminer le cerveau et des indices à trouver en observant autour de vous ! Les randonnées se font en autonomie pour s'amuser tout en vivant un moment de partage. Les jeux de piste proposés sont adaptées à l’âge de l’enfant (4/6 ans 7/9 ans et + de 10 ans)."
B.F.S BOXE FRANÇAISE SAVATE STRASBOURG,Boxe Française,,67000,STRASBOURG,Grand Est,0628515592,melidrissi@carambarco.com,,Réservation obligatoire. Une séance offerte sur remise de votre pass. Offre non cumulable pour une même personne. A partir de 7 ans.
BAD TEAM ST.HO,Badminton,,58360 ,SAINT HONORE LES BAINS,Bourgogne-Franche-Comté,,badteamstho@gmail.com,,Réservation obligatoire. Une séance offerte sur remise de votre pass. Offre non cumulable pour une même personne. A partir de 6 ans.
BADISTES DE LA BOËME,Badminton,,16440,MOUTHIERS SUR BOEME,Nouvelle-Aquitaine,,contact@badistesdelaboeme.fr,,Réservation obligatoire. Une séance offerte sur remise de votre pass. Offre non cumulable pour une même personne. A partir de 6 ans.
BADMINTON CLUB DE LA BÂTIE NEUVE,Badminton,,05230 ,LA BATIE NEUVE,Provence-Alpes-Côte d'Azur,,bcbn05@gmail.com,,Réservation obligatoire. Une séance offerte sur remise de votre pass. Offre non cumulable pour une même personne. A partir de 6 ans.
BADMINTON CLUB GUIGNES,Badminton,,77166 ,GRISY GUINES,Île-de-France,,bcguignes@gmail.com,,Réservation obligatoire. Une séance offerte sur remise de votre pass. Offre non cumulable pour une même personne. A partir de 6 ans.
BADMINTON CLUB LISLOIS,Badminton,,32600,CLERMONT SAVES,Occitanie,,badclublislois@gmail.com,,Réservation obligatoire. Une séance offerte sur remise de votre pass. Offre non cumulable pour une même personne. A partir de 6 ans.
BADMINTON DE SAINT GIRONS,Badminton,,09200,SAINT GIRONS,Occitanie,,badsg09@gmail.com,,Réservation obligatoire. Une séance offerte sur remise de votre pass. Offre non cumulable pour une même personne. A partir de 6 ans.
BADMINTON DU PAYS FORT,Badminton,,18260 ,VAILLY SUR SAULDRE,Centre-Val de Loire,,bpf18260@gmail.com,,Réservation obligatoire. Une séance offerte sur remise de votre pass. Offre non cumulable pour une même personne. A partir de 6 ans.
BADMINTON PAYS DE PLÉLAN,Badminton,,22980 ,PLELAN LE PETIT,Bretagne,,badaplelan@gmail.com,,Réservation obligatoire. Une séance offerte sur remise de votre pass. Offre non cumulable pour une même personne. A partir de 6 ans.
BADMINTON SAINT-CERE,Badminton,,46400 ,SAINT CERE,Occitanie,,badstcere46@yahoo.fr,,Réservation obligatoire. Une séance offerte sur remise de votre pass. Offre non cumulable pour une même personne. A partir de 6 ans.
BALADE LUDIQUE À GAURÉ EN FAMILLE,Jeu de piste ludique,,31590,GAURÉ,Occitanie,,contact@les-challenges-bn.fr,http://www.randoland.fr/bn,"Recevez un code pour télécharger ce parcours et deux autres dans la région de votre choix. Chaque parcours comprend une carte pour se repérer, des jeux à réaliser durant la randonnée pour vitaminer le cerveau et des indices à trouver en observant autour de vous ! Les randonnées se font en autonomie pour s'amuser tout en vivant un moment de partage. Les jeux de piste proposés sont adaptées à l’âge de l’enfant (4/6 ans 7/9 ans et + de 10 ans)."
BALADE LUDIQUE À SAINT-PONS,Jeu de piste ludique,,07580,SAINT-PONS,Auvergne-Rhône-Alpes,,contact@les-challenges-bn.fr,http://www.randoland.fr/bn,"Recevez un code pour télécharger ce parcours et deux autres dans la région de votre choix. Chaque parcours comprend une carte pour se repérer, des jeux à réaliser durant la randonnée pour vitaminer le cerveau et des indices à trouver en observant autour de vous ! Les randonnées se font en autonomie pour s'amuser tout en vivant un moment de partage. Les jeux de piste proposés sont adaptées à l’âge de l’enfant (4/6 ans 7/9 ans et + de 10 ans)."
BALADE LUDIQUE EN FAMILLE À AIMARGUES ,Jeu de piste ludique,,30470,AIMARGUES,Occitanie,,contact@les-challenges-bn.fr,http://www.randoland.fr/bn,"Recevez un code pour télécharger ce parcours et deux autres dans la région de votre choix. Chaque parcours comprend une carte pour se repérer, des jeux à réaliser durant la randonnée pour vitaminer le cerveau et des indices à trouver en observant autour de vous ! Les randonnées se font en autonomie pour s'amuser tout en vivant un moment de partage. Les jeux de piste proposés sont adaptées à l’âge de l’enfant (4/6 ans 7/9 ans et + de 10 ans)."
BALADE LUDIQUE EN FAMILLE À LEMBACH.,Jeu de piste ludique,,67510,LEMBACH,Grand Est,,contact@les-challenges-bn.fr,http://www.randoland.fr/bn,"Recevez un code pour télécharger ce parcours et deux autres dans la région de votre choix. Chaque parcours comprend une carte pour se repérer, des jeux à réaliser durant la randonnée pour vitaminer le cerveau et des indices à trouver en observant autour de vous ! Les randonnées se font en autonomie pour s'amuser tout en vivant un moment de partage. Les jeux de piste proposés sont adaptées à l’âge de l’enfant (4/6 ans 7/9 ans et + de 10 ans)."
BALADE LUDIQUE ET FAMILIALE À HUNSPACH,Jeu de piste ludique,,67250,HUNSPACH,Grand Est,,contact@les-challenges-bn.fr,http://www.randoland.fr/bn,"Recevez un code pour télécharger ce parcours et deux autres dans la région de votre choix. Chaque parcours comprend une carte pour se repérer, des jeux à réaliser durant la randonnée pour vitaminer le cerveau et des indices à trouver en observant autour de vous ! Les randonnées se font en autonomie pour s'amuser tout en vivant un moment de partage. Les jeux de piste proposés sont adaptées à l’âge de l’enfant (4/6 ans 7/9 ans et + de 10 ans)."
BAR AIKIDO RYU,Aikido,Gymnase Bradfer - Impasse Des Brasseries,55000,BAR LE DUC ,Grand Est,,aikido.barleduc@gmail.com,,Réservation obligatoire. Une séance offerte sur remise de votre pass. Offre non cumulable pour une même personne. A partir de 8 ans.
BF CLUB PERIGUEUX,Boxe Française,,24000,PÉRIGUEUX,Nouvelle-Aquitaine,0681030239,dbondat@yahoo.fr,,Réservation obligatoire. Une séance offerte sur remise de votre pass. Offre non cumulable pour une même personne. A partir de 7 ans.
BF PARADIS,Boxe Française,,13000,MARSEILLE,Provence-Alpes-Côte d'Azur,0612182238,fmullermaristes13@gmail.com,http://www.boxefrancaiseparadis.com,Réservation obligatoire. Une séance offerte sur remise de votre pass. Offre non cumulable pour une même personne. A partir de 7 ans.
BFLC,Boxe Française,,17170,COURÇON,Nouvelle-Aquitaine,,murphi.hagoug@gmail.com,,Réservation obligatoire. Une séance offerte sur remise de votre pass. Offre non cumulable pour une même personne. A partir de 7 ans.
BISONS,Cheerleading,Stade de la Malcombe,25000,BESANCON,Bourgogne-Franche-Comté,,361@fffa.org,,Réservation obligatoire. Une séance offerte sur remise de votre pass. Offre non cumulable pour une même personne. A partir de 6 ans.
BLACK HORNETS,Football Américain,Le Pré des Bœufs,42120,COTEAU,Auvergne-Rhône-Alpes,,545@fffa.org,,Réservation obligatoire. Une séance offerte sur remise de votre pass. Offre non cumulable pour une même personne. A partir de 8 ans.
BLANC MESNIL SPORT HOCKEY,Hockey sur Gazon,,93150,LE BLANC MESNIL,Île-de-France,,contact.bmsh@gmail.com,,Réservation obligatoire. Une séance offerte sur remise de votre pass. Offre non cumulable pour une même personne. A partir de 6 ans.
BOXING CLUB GOURNAISIEN,Boxe Française,,76220,GOURNAY  EN  BRAY,Normandie,0618017343,gaulierkristel@gmail.com,,Réservation obligatoire. Une séance offerte sur remise de votre pass. Offre non cumulable pour une même personne. A partir de 7 ans.
BOXING SAVATE ACADEMY,Boxe Française,,30129,MANDUEL,Occitanie,0761287602,bsa.sbf@gmail.com,http://www.boxingsavateacademy.fr,Réservation obligatoire. Une séance offerte sur remise de votre pass. Offre non cumulable pour une même personne. A partir de 7 ans.
BUDOKAN DE LA GUADELOUPE,Haltérophilie,,97139,LES ABYMES,	Guadeloupe,,lebudokan@gmail.com,,Réservation obligatoire. Une séance offerte sur remise de votre pass. Offre non cumulable pour une même personne. A partir de 8 ans.
C. A. JEANNE HACHETTE - BEAUVAIS,Tir à l'arc,,60000,BEAUVAIS,Hauts-de-France,,ciejeannehachette@gmail.com,,Réservation obligatoire. Une séance offerte sur remise de votre pass. Offre non cumulable pour une même personne. A partir de 7 ans. Hors vacances scolaires. 
CAEN CALVADOS HALTEROPHILIE MUSCULATION,Haltérophilie,,14000,CAEN,Normandie,0981397784,presidence.caen14haltero@gmail.com,,Réservation obligatoire. Une séance offerte sur remise de votre pass. Offre non cumulable pour une même personne. A partir de 8 ans.
CAIMANS 72,Flag Football,Stade Auguste Delaune,72000,MANS,Pays de la Loire,,038@fffa.org,,Réservation obligatoire. Une séance offerte sur remise de votre pass. Offre non cumulable pour une même personne. A partir de 6 ans.
CAMBRAI HOCKEY CLUB,Hockey sur Gazon,,59400,CAMBRAI,Hauts-de-France,,presidents@cambraihockeyclub.fr,,Réservation obligatoire. Une séance offerte sur remise de votre pass. Offre non cumulable pour une même personne. A partir de 6 ans.
CERCLE BOXING CLUB,Boxe Française,,92350,LE PLESSIS-ROBINSON,Île-de-France,,savateleplessis92@gmail.com,https://boxing-plessis.fr/,Réservation obligatoire. Une séance offerte sur remise de votre pass. Offre non cumulable pour une même personne. A partir de 7 ans.
CERCLE D'ESCRIME DE LAVAUR,Escrime,12 avenue A. Malroux,81500,LAVAUR,Occitanie,0623332237,escrimelavaur@gmail.com,http://www.lavaur-escrime.fr,Réservation obligatoire. Une séance offerte sur remise du pass. Offre non cumulable pour une même personne. A partir de 7 ans.
CERCLE D'ESCRIME DE PITHIVIERS,Escrime,Gymnase Pasteur Boulevard Pasteur,45300,PITHIVIERS,Centre-Val de Loire,0617815187,cepithiviers@gmail.com,,Réservation obligatoire. Une séance offerte sur remise du pass (lundi soir hors vacances scolaires). Offre non cumulable pour une même personne. A partir de 8 ans.
CERCLE KOUROUCIEN SAVATE,Boxe Française,,97310,KOUROU,Guyane,0594322876,jose.golitin@wanadoo.fr,,Réservation obligatoire. Une séance offerte sur remise de votre pass. Offre non cumulable pour une même personne. A partir de 8 ans.
CHATEAUBOURG HOCKEY CLUB,Hockey sur Gazon,,35220,CHATEAUBOURG,Bretagne,,chateaubourg.hc@gmail.com,,Réservation obligatoire. Une séance offerte sur remise de votre pass. Offre non cumulable pour une même personne. A partir de 6 ans.
CHCD COMINES,Haltérophilie,,59560,COMINES,Hauts-de-France,,jc.defrance@orange.fr,,Réservation obligatoire. Une séance offerte sur remise de votre pass. Offre non cumulable pour une même personne. A partir de 8 ans.
CHINON A.S.C.A.R.,Tir à l'arc,,37500,ANCHÉ,Centre-Val de Loire,,ascarchinon@gmail.com,,Réservation obligatoire. Une séance offerte sur remise de votre pass. Offre non cumulable pour une même personne. A partir de 7 ans. Hors vacances scolaires. 
CHM CHATEAUROUX,Haltérophilie,,36000,CHATEAUROUX,Centre-Val de Loire,0254228614,halteroforce-chateauroux@orange.fr,,Réservation obligatoire. Une séance offerte sur remise de votre pass. Offre non cumulable pour une même personne. A partir de 8 ans.
CHM LE TRAIT,Haltérophilie,,76580,LE TRAIT,Normandie,0648565398,president@chmt.fr,,Réservation obligatoire. Une séance offerte sur remise de votre pass. Offre non cumulable pour une même personne. A partir de 8 ans.
CIE D'ARC DE CHAMBLY,Tir à l'arc,,60230,CHAMBLY,Hauts-de-France,,compagnie@chamblyarc.fr,,Réservation obligatoire. Une séance offerte sur remise de votre pass. Offre non cumulable pour une même personne. A partir de 7 ans. Hors vacances scolaires. 
CIE D'ARC ROMAINVILLE,Tir à l'arc,,93230,ROMAINVILLE,Île-de-France,,petitbebemanu@hotmail.fr,,Réservation obligatoire. Une séance offerte sur remise de votre pass. Offre non cumulable pour une même personne. A partir de 7 ans. Hors vacances scolaires. 
CIE DES ARCHERS DE BRIVE,Tir à l'arc,,19100,BRIVE-LA-GAILLARDE,Nouvelle-Aquitaine,,ciearchersdebrive@gmail.com,,Réservation obligatoire. Une séance offerte sur remise de votre pass. Offre non cumulable pour une même personne. A partir de 7 ans. Hors vacances scolaires. 
CIE DES ARCHERS DE THUIT SIGNOL,Tir à l'arc,,27370,LE THUIT DE L'OISON,Normandie,,cats.thuitsignol@gmail.com,,Réservation obligatoire. Une séance offerte sur remise de votre pass. Offre non cumulable pour une même personne. A partir de 7 ans. Hors vacances scolaires. 
CIE DES ARCHERS DU ROY DE NERAC EN VAL D ALBRET,Tir à l'arc,,47600,NÉRAC,Nouvelle-Aquitaine,,wachohd@gmail.com,,Réservation obligatoire. Une séance offerte sur remise de votre pass. Offre non cumulable pour une même personne. A partir de 7 ans. Hors vacances scolaires. 
CLÉMONT,Jeu de piste ludique,,18410,CLEMONT,Centre-Val de Loire,,contact@les-challenges-bn.fr,http://www.randoland.fr/bn,"Recevez un code pour télécharger ce parcours et deux autres dans la région de votre choix. Chaque parcours comprend une carte pour se repérer, des jeux à réaliser durant la randonnée pour vitaminer le cerveau et des indices à trouver en observant autour de vous ! Les randonnées se font en autonomie pour s'amuser tout en vivant un moment de partage. Les jeux de piste proposés sont adaptées à l’âge de l’enfant (4/6 ans 7/9 ans et + de 10 ans)."
CLEPPÉ,Jeu de piste ludique,,42110,CLEPPE,Auvergne-Rhône-Alpes,,contact@les-challenges-bn.fr,http://www.randoland.fr/bn,"Recevez un code pour télécharger ce parcours et deux autres dans la région de votre choix. Chaque parcours comprend une carte pour se repérer, des jeux à réaliser durant la randonnée pour vitaminer le cerveau et des indices à trouver en observant autour de vous ! Les randonnées se font en autonomie pour s'amuser tout en vivant un moment de partage. Les jeux de piste proposés sont adaptées à l’âge de l’enfant (4/6 ans 7/9 ans et + de 10 ans)."
CLUB ATHLETIQUE LEXOVIEN DE HOCKEY,Hockey sur Gazon,,14100 ,LISIEUX,Normandie,,contact@lisieuxhockey.com,,Réservation obligatoire. Une séance offerte sur remise de votre pass. Offre non cumulable pour une même personne. A partir de 6 ans.
CLUB DE CALVI BALAGNE,Tir à l'arc,,20260,CALVI,Corse,,arcbalagne@gmail.com,,Réservation obligatoire. Une séance offerte sur remise de votre pass. Offre non cumulable pour une même personne. A partir de 7 ans. Hors vacances scolaires. 
CLUB HALTEROPHILIE RAPTOR,Haltérophilie,,97419,LA POSSESSION,La Réunion ,,jeromevaglio@icloud.com,,Réservation obligatoire. Une séance offerte sur remise de votre pass. Offre non cumulable pour une même personne. A partir de 8 ans.
CLUB OMNISPORTS CHATEAU DU LOIR,Badminton,,72500,CHATEAU DU LOIR,Pays de la Loire,,charles.hubert72@free.fr,,Réservation obligatoire. Une séance offerte sur remise de votre pass. Offre non cumulable pour une même personne. A partir de 6 ans.
COMITÉ DÉPARTEMENT DU SPORT EN MILIEU RURAL 77,Sport Santé,,77320,LA FERTE-GAUCHER,Île-de-France,0646661859,contact@sportrural77.org,,Réservation obligatoire. Une séance offerte sur remise de votre pass. Offre non cumulable pour une même personne. A partir de 6 ans.
COMME UN JEU DE PISTE À AGON-COUTAINVILLE,Jeu de piste ludique,,50230,AGON-COUTAINVILLE,Normandie,,contact@les-challenges-bn.fr,http://www.randoland.fr/bn,"Recevez un code pour télécharger ce parcours et deux autres dans la région de votre choix. Chaque parcours comprend une carte pour se repérer, des jeux à réaliser durant la randonnée pour vitaminer le cerveau et des indices à trouver en observant autour de vous ! Les randonnées se font en autonomie pour s'amuser tout en vivant un moment de partage. Les jeux de piste proposés sont adaptées à l’âge de l’enfant (4/6 ans 7/9 ans et + de 10 ans)."
COMME UN JEU DE PISTE À AMBOISE,Jeu de piste ludique,,37400,AMBOISE,Centre-Val de Loire,,contact@les-challenges-bn.fr,http://www.randoland.fr/bn,"Recevez un code pour télécharger ce parcours et deux autres dans la région de votre choix. Chaque parcours comprend une carte pour se repérer, des jeux à réaliser durant la randonnée pour vitaminer le cerveau et des indices à trouver en observant autour de vous ! Les randonnées se font en autonomie pour s'amuser tout en vivant un moment de partage. Les jeux de piste proposés sont adaptées à l’âge de l’enfant (4/6 ans 7/9 ans et + de 10 ans)."
COMME UN JEU DE PISTE À AUBIGNY-SUR-NÈRE,Jeu de piste ludique,,18700,AUBIGNY-SUR-NÈRE,Centre-Val de Loire,,contact@les-challenges-bn.fr,http://www.randoland.fr/bn,"Recevez un code pour télécharger ce parcours et deux autres dans la région de votre choix. Chaque parcours comprend une carte pour se repérer, des jeux à réaliser durant la randonnée pour vitaminer le cerveau et des indices à trouver en observant autour de vous ! Les randonnées se font en autonomie pour s'amuser tout en vivant un moment de partage. Les jeux de piste proposés sont adaptées à l’âge de l’enfant (4/6 ans 7/9 ans et + de 10 ans)."
COMME UN JEU DE PISTE À BEAUVAIS,Jeu de piste ludique,,60000,BEAUVAIS,Hauts-de-France,,contact@les-challenges-bn.fr,http://www.randoland.fr/bn,"Recevez un code pour télécharger ce parcours et deux autres dans la région de votre choix. Chaque parcours comprend une carte pour se repérer, des jeux à réaliser durant la randonnée pour vitaminer le cerveau et des indices à trouver en observant autour de vous ! Les randonnées se font en autonomie pour s'amuser tout en vivant un moment de partage. Les jeux de piste proposés sont adaptées à l’âge de l’enfant (4/6 ans 7/9 ans et + de 10 ans)."
COMME UN JEU DE PISTE À COLLONGES SOUS SALÈVE,Jeu de piste ludique,,74160,COLLONGES-SOUS-SALÈVE,Auvergne-Rhône-Alpes,,contact@les-challenges-bn.fr,http://www.randoland.fr/bn,"Recevez un code pour télécharger ce parcours et deux autres dans la région de votre choix. Chaque parcours comprend une carte pour se repérer, des jeux à réaliser durant la randonnée pour vitaminer le cerveau et des indices à trouver en observant autour de vous ! Les randonnées se font en autonomie pour s'amuser tout en vivant un moment de partage. Les jeux de piste proposés sont adaptées à l’âge de l’enfant (4/6 ans 7/9 ans et + de 10 ans)."
COMME UN JEU DE PISTE À JOUX,Jeu de piste ludique,,69170,JOUX,Auvergne-Rhône-Alpes,,contact@les-challenges-bn.fr,http://www.randoland.fr/bn,"Recevez un code pour télécharger ce parcours et deux autres dans la région de votre choix. Chaque parcours comprend une carte pour se repérer, des jeux à réaliser durant la randonnée pour vitaminer le cerveau et des indices à trouver en observant autour de vous ! Les randonnées se font en autonomie pour s'amuser tout en vivant un moment de partage. Les jeux de piste proposés sont adaptées à l’âge de l’enfant (4/6 ans 7/9 ans et + de 10 ans)."
COMME UN JEU DE PISTE À LA BARRE DE MONTS,Jeu de piste ludique,,85550,LA BARRE DE MONTS,Pays de la Loire,,contact@les-challenges-bn.fr,http://www.randoland.fr/bn,"Recevez un code pour télécharger ce parcours et deux autres dans la région de votre choix. Chaque parcours comprend une carte pour se repérer, des jeux à réaliser durant la randonnée pour vitaminer le cerveau et des indices à trouver en observant autour de vous ! Les randonnées se font en autonomie pour s'amuser tout en vivant un moment de partage. Les jeux de piste proposés sont adaptées à l’âge de l’enfant (4/6 ans 7/9 ans et + de 10 ans)."
COMME UN JEU DE PISTE À LESCAR,Jeu de piste ludique,,64230,LESCAR,Nouvelle-Aquitaine,,contact@les-challenges-bn.fr,http://www.randoland.fr/bn,"Recevez un code pour télécharger ce parcours et deux autres dans la région de votre choix. Chaque parcours comprend une carte pour se repérer, des jeux à réaliser durant la randonnée pour vitaminer le cerveau et des indices à trouver en observant autour de vous ! Les randonnées se font en autonomie pour s'amuser tout en vivant un moment de partage. Les jeux de piste proposés sont adaptées à l’âge de l’enfant (4/6 ans 7/9 ans et + de 10 ans)."
COMME UN JEU DE PISTE À LOURDES,Jeu de piste ludique,,65100,LOURDES,Occitanie,,contact@les-challenges-bn.fr,http://www.randoland.fr/bn,"Recevez un code pour télécharger ce parcours et deux autres dans la région de votre choix. Chaque parcours comprend une carte pour se repérer, des jeux à réaliser durant la randonnée pour vitaminer le cerveau et des indices à trouver en observant autour de vous ! Les randonnées se font en autonomie pour s'amuser tout en vivant un moment de partage. Les jeux de piste proposés sont adaptées à l’âge de l’enfant (4/6 ans 7/9 ans et + de 10 ans)."
COMME UN JEU DE PISTE A MELGVEN,Jeu de piste ludique,,29140,MELGVEN,Bretagne,,contact@les-challenges-bn.fr,http://www.randoland.fr/bn,"Recevez un code pour télécharger ce parcours et deux autres dans la région de votre choix. Chaque parcours comprend une carte pour se repérer, des jeux à réaliser durant la randonnée pour vitaminer le cerveau et des indices à trouver en observant autour de vous ! Les randonnées se font en autonomie pour s'amuser tout en vivant un moment de partage. Les jeux de piste proposés sont adaptées à l’âge de l’enfant (4/6 ans 7/9 ans et + de 10 ans)."
COMME UN JEU DE PISTE À MEYMAC - LE MONT BESSOU,Jeu de piste ludique,,19250,MEYMAC - LE MONT BESSOU,Nouvelle-Aquitaine,,contact@les-challenges-bn.fr,http://www.randoland.fr/bn,"Recevez un code pour télécharger ce parcours et deux autres dans la région de votre choix. Chaque parcours comprend une carte pour se repérer, des jeux à réaliser durant la randonnée pour vitaminer le cerveau et des indices à trouver en observant autour de vous ! Les randonnées se font en autonomie pour s'amuser tout en vivant un moment de partage. Les jeux de piste proposés sont adaptées à l’âge de l’enfant (4/6 ans 7/9 ans et + de 10 ans)."
COMME UN JEU DE PISTE À MONTBRISON,Jeu de piste ludique,,42600,MONTBRISON,Auvergne-Rhône-Alpes,,contact@les-challenges-bn.fr,http://www.randoland.fr/bn,"Recevez un code pour télécharger ce parcours et deux autres dans la région de votre choix. Chaque parcours comprend une carte pour se repérer, des jeux à réaliser durant la randonnée pour vitaminer le cerveau et des indices à trouver en observant autour de vous ! Les randonnées se font en autonomie pour s'amuser tout en vivant un moment de partage. Les jeux de piste proposés sont adaptées à l’âge de l’enfant (4/6 ans 7/9 ans et + de 10 ans)."
COMME UN JEU DE PISTE À MOREZ,Jeu de piste ludique,,39400,MOREZ,Bourgogne-Franche-Comté,,contact@les-challenges-bn.fr,http://www.randoland.fr/bn,"Recevez un code pour télécharger ce parcours et deux autres dans la région de votre choix. Chaque parcours comprend une carte pour se repérer, des jeux à réaliser durant la randonnée pour vitaminer le cerveau et des indices à trouver en observant autour de vous ! Les randonnées se font en autonomie pour s'amuser tout en vivant un moment de partage. Les jeux de piste proposés sont adaptées à l’âge de l’enfant (4/6 ans 7/9 ans et + de 10 ans)."
COMME UN JEU DE PISTE À RULLY,Jeu de piste ludique,,71150,RULLY,Bourgogne-Franche-Comté,,contact@les-challenges-bn.fr,http://www.randoland.fr/bn,"Recevez un code pour télécharger ce parcours et deux autres dans la région de votre choix. Chaque parcours comprend une carte pour se repérer, des jeux à réaliser durant la randonnée pour vitaminer le cerveau et des indices à trouver en observant autour de vous ! Les randonnées se font en autonomie pour s'amuser tout en vivant un moment de partage. Les jeux de piste proposés sont adaptées à l’âge de l’enfant (4/6 ans 7/9 ans et + de 10 ans)."
COMME UN JEU DE PISTE À SAINT-BONNET-LES-OULES,Jeu de piste ludique,,42330,SAINT-BONNET-LES-OULES,Auvergne-Rhône-Alpes,,contact@les-challenges-bn.fr,http://www.randoland.fr/bn,"Recevez un code pour télécharger ce parcours et deux autres dans la région de votre choix. Chaque parcours comprend une carte pour se repérer, des jeux à réaliser durant la randonnée pour vitaminer le cerveau et des indices à trouver en observant autour de vous ! Les randonnées se font en autonomie pour s'amuser tout en vivant un moment de partage. Les jeux de piste proposés sont adaptées à l’âge de l’enfant (4/6 ans 7/9 ans et + de 10 ans)."
COMME UN JEU DE PISTE À SAINT-JULIEN-CHAPTEUIL,Jeu de piste ludique,,43260,SAINT-JULIEN-CHAPTEUIL,Auvergne-Rhône-Alpes,,contact@les-challenges-bn.fr,http://www.randoland.fr/bn,"Recevez un code pour télécharger ce parcours et deux autres dans la région de votre choix. Chaque parcours comprend une carte pour se repérer, des jeux à réaliser durant la randonnée pour vitaminer le cerveau et des indices à trouver en observant autour de vous ! Les randonnées se font en autonomie pour s'amuser tout en vivant un moment de partage. Les jeux de piste proposés sont adaptées à l’âge de l’enfant (4/6 ans 7/9 ans et + de 10 ans)."
COMME UN JEU DE PISTE À SARZEAU,Jeu de piste ludique,,56370,SARZEAU,Bretagne,,contact@les-challenges-bn.fr,http://www.randoland.fr/bn,"Recevez un code pour télécharger ce parcours et deux autres dans la région de votre choix. Chaque parcours comprend une carte pour se repérer, des jeux à réaliser durant la randonnée pour vitaminer le cerveau et des indices à trouver en observant autour de vous ! Les randonnées se font en autonomie pour s'amuser tout en vivant un moment de partage. Les jeux de piste proposés sont adaptées à l’âge de l’enfant (4/6 ans 7/9 ans et + de 10 ans)."
COMME UN JEU DE PISTE À STRUTH,Jeu de piste ludique,,67290,STRUTH,Grand Est,,contact@les-challenges-bn.fr,http://www.randoland.fr/bn,"Recevez un code pour télécharger ce parcours et deux autres dans la région de votre choix. Chaque parcours comprend une carte pour se repérer, des jeux à réaliser durant la randonnée pour vitaminer le cerveau et des indices à trouver en observant autour de vous ! Les randonnées se font en autonomie pour s'amuser tout en vivant un moment de partage. Les jeux de piste proposés sont adaptées à l’âge de l’enfant (4/6 ans 7/9 ans et + de 10 ans)."
COMME UN JEU DE PISTE À SURY-EN-VAUX,Jeu de piste ludique,,18300,SURY-EN-VAUX,Centre-Val de Loire,,contact@les-challenges-bn.fr,http://www.randoland.fr/bn,"Recevez un code pour télécharger ce parcours et deux autres dans la région de votre choix. Chaque parcours comprend une carte pour se repérer, des jeux à réaliser durant la randonnée pour vitaminer le cerveau et des indices à trouver en observant autour de vous ! Les randonnées se font en autonomie pour s'amuser tout en vivant un moment de partage. Les jeux de piste proposés sont adaptées à l’âge de l’enfant (4/6 ans 7/9 ans et + de 10 ans)."
COMME UN JEU DE PISTE À TRACY-LE-MONT,Jeu de piste ludique,,60170,TRACY-LE-MONT,Hauts-de-France,,contact@les-challenges-bn.fr,http://www.randoland.fr/bn,"Recevez un code pour télécharger ce parcours et deux autres dans la région de votre choix. Chaque parcours comprend une carte pour se repérer, des jeux à réaliser durant la randonnée pour vitaminer le cerveau et des indices à trouver en observant autour de vous ! Les randonnées se font en autonomie pour s'amuser tout en vivant un moment de partage. Les jeux de piste proposés sont adaptées à l’âge de l’enfant (4/6 ans 7/9 ans et + de 10 ans)."
COMME UN JEU DE PISTE À VAILLY-SUR-SAULDRE,Jeu de piste ludique,,18260,VAILLY-SUR-SAULDRE,Centre-Val de Loire,,contact@les-challenges-bn.fr,http://www.randoland.fr/bn,"Recevez un code pour télécharger ce parcours et deux autres dans la région de votre choix. Chaque parcours comprend une carte pour se repérer, des jeux à réaliser durant la randonnée pour vitaminer le cerveau et des indices à trouver en observant autour de vous ! Les randonnées se font en autonomie pour s'amuser tout en vivant un moment de partage. Les jeux de piste proposés sont adaptées à l’âge de l’enfant (4/6 ans 7/9 ans et + de 10 ans)."
COMME UN JEU DE PISTE À VILLEFRANCHE-DE-PANAT,Jeu de piste ludique,,12430,VILLEFRANCHE-DE-PANAT,Occitanie,,contact@les-challenges-bn.fr,http://www.randoland.fr/bn,"Recevez un code pour télécharger ce parcours et deux autres dans la région de votre choix. Chaque parcours comprend une carte pour se repérer, des jeux à réaliser durant la randonnée pour vitaminer le cerveau et des indices à trouver en observant autour de vous ! Les randonnées se font en autonomie pour s'amuser tout en vivant un moment de partage. Les jeux de piste proposés sont adaptées à l’âge de l’enfant (4/6 ans 7/9 ans et + de 10 ans)."
COMME UNE CHASSE AU TRÉSOR À CHARMES ,Jeu de piste ludique,,88130,CHARMES,Grand Est,,contact@les-challenges-bn.fr,http://www.randoland.fr/bn,"Recevez un code pour télécharger ce parcours et deux autres dans la région de votre choix. Chaque parcours comprend une carte pour se repérer, des jeux à réaliser durant la randonnée pour vitaminer le cerveau et des indices à trouver en observant autour de vous ! Les randonnées se font en autonomie pour s'amuser tout en vivant un moment de partage. Les jeux de piste proposés sont adaptées à l’âge de l’enfant (4/6 ans 7/9 ans et + de 10 ans)."
COMPAGNIE D'ARC DE VERNON,Tir à l'arc,,27200,VERNON,Normandie,,cavernon27@gmail.com,,Réservation obligatoire. Une séance offerte sur remise de votre pass. Offre non cumulable pour une même personne. A partir de 7 ans. Hors vacances scolaires. 
COMPAGNIE D'ARC VILLIERS LE BEL,Tir à l'arc,,95400,ARNOUVILLE,Île-de-France,,compagniedarcvillierslebel@gmail.com,,Réservation obligatoire. Une séance offerte sur remise de votre pass. Offre non cumulable pour une même personne. A partir de 7 ans. Hors vacances scolaires. 
CORDES-TOLOSANNES EN FAMILLE,Jeu de piste ludique,,82700,CORDES-TOLOSANNES,Occitanie,,contact@les-challenges-bn.fr,http://www.randoland.fr/bn,"Recevez un code pour télécharger ce parcours et deux autres dans la région de votre choix. Chaque parcours comprend une carte pour se repérer, des jeux à réaliser durant la randonnée pour vitaminer le cerveau et des indices à trouver en observant autour de vous ! Les randonnées se font en autonomie pour s'amuser tout en vivant un moment de partage. Les jeux de piste proposés sont adaptées à l’âge de l’enfant (4/6 ans 7/9 ans et + de 10 ans)."
COSMA BADMINTON SAINT LAURENT DU MARONI,Badminton,,97320,SAINT LAURENT DU MARONI,Guyane,,akalepjo.pat@hotmail.fr,,Réservation obligatoire. Une séance offerte sur remise de votre pass. Offre non cumulable pour une même personne. A partir de 8 ans.
CROSSFIT SAINT SIMON,Haltérophilie,,31500,TOULOUSE,Occitanie,0623572289,raphaeldurand2a@gmail.com,,Réservation obligatoire. Une séance offerte sur remise de votre pass. Offre non cumulable pour une même personne. A partir de 8 ans.
CSM GENNEVILLOIS HALTEROPHILIE,Haltérophilie,,92230,GENNEVILLIERS,Île-de-France,0667460091,csmg.haltero@gmail.com,,Réservation obligatoire. Une séance offerte sur remise de votre pass. Offre non cumulable pour une même personne. A partir de 8 ans.
DES COLLINES SÈCHES AUX ÉTANGS,Jeu de piste ludique,,11130,SIGEAN ,Occitanie,,contact@les-challenges-bn.fr,http://www.randoland.fr/bn,"Recevez un code pour télécharger ce parcours et deux autres dans la région de votre choix. Chaque parcours comprend une carte pour se repérer, des jeux à réaliser durant la randonnée pour vitaminer le cerveau et des indices à trouver en observant autour de vous ! Les randonnées se font en autonomie pour s'amuser tout en vivant un moment de partage. Les jeux de piste proposés sont adaptées à l’âge de l’enfant (4/6 ans 7/9 ans et + de 10 ans)."
DIJON UNIVERSITE CLUB,Boxe Française,,21000,DIJON,Bourgogne-Franche-Comté,,corpat@free.fr,http://www.duc-bf.fr/,Réservation obligatoire. Une séance offerte sur remise de votre pass. Offre non cumulable pour une même personne. A partir de 7 ans.
DOJO DES ARTS MARTIAUX DE TALANGE,Judo,23 rue des Colombes,57525,TALANGE,Grand Est,0664296623,jcpavan57@gmail.com,,Réservation obligatoire. Une séance offerte sur remise de votre pass. Offre non cumulable pour une même personne. A partir de 6 ans.
DOJO DES ARTS MARTIAUX DE TALANGE,Qi Gong,23 rue des Colombes,57525,TALANGE,Grand Est,0664296623,jcpavan57@gmail.com,,Réservation obligatoire. Une séance offerte sur remise de votre pass. Offre non cumulable pour une même personne. A partir de 16 ans.
DOJO DES ARTS MARTIAUX DE TALANGE,Taïchi,23 rue des Colombes,57525,TALANGE,Grand Est,0664296623,jcpavan57@gmail.com,,Réservation obligatoire. Une séance offerte sur remise de votre pass. Offre non cumulable pour une même personne. A partir de 16 ans.
DOJO DES ARTS MARTIAUX DE TALANGE,Yoga,Rue Maurice Boquet,57525,TALANGE,Grand Est,0664296623,jcpavan57@gmail.com,,Réservation obligatoire. Une séance offerte sur remise de votre pass. Offre non cumulable pour une même personne. A partir de 12 ans.
DUNKERQUE GUILLAUME TELL,Tir à l'arc,,59430,DUNKERQUE,Hauts-de-France,,segolene.eric@gmail.com,,Réservation obligatoire. Une séance offerte sur remise de votre pass. Offre non cumulable pour une même personne. A partir de 7 ans. Hors vacances scolaires. 
E.A.C. SAVATE,Boxe Française,,27000,ÉVREUX,Normandie,0233697994,de-pestel.christine@orange.fr,http://www.eacsavate.fr,Réservation obligatoire. Une séance offerte sur remise de votre pass. Offre non cumulable pour une même personne. A partir de 7 ans.
ENTENTE SAINT SEBASTIEN,Tir à l'arc,,59120,LOOS,Hauts-de-France,,loostiralarc@gmail.com,,Réservation obligatoire. Une séance offerte sur remise de votre pass. Offre non cumulable pour une même personne. A partir de 7 ans. Hors vacances scolaires. 
ENTRE SPORT ET COMBAT ,Kick Boxing,,76400,FECAMP,Normandie,0689341313,basdam@live.fr,,Réservation obligatoire. Une séance offerte sur remise de votre pass. Offre non cumulable pour une même personne. A partir de 8 ans.
ESPRIT SAVATE BOXE FRANCAISE,Boxe Française,,59480,LA BASSÉE,Hauts-de-France,,esprit.sbf@gmail.com,,Réservation obligatoire. Une séance offerte sur remise de votre pass. Offre non cumulable pour une même personne. A partir de 7 ans.
ETOILE ANGERS YANKEES,Cheerleading,Stade Marcel Nauleau,49000,ANGERS,Pays de la Loire,,102@fffa.org,,Réservation obligatoire. Une séance offerte sur remise de votre pass. Offre non cumulable pour une même personne. A partir de 6 ans.
ETOILE CYCLISTE MAYENNAISE,Cyclisme ,11 bis rue de la davière,53100,MAYENNE,Pays de la Loire,0243042983,ecmayenne@bbox.fr,https://www.etoile-cycliste-mayennaise.fr/,Réservation obligatoire. Une séance offerte sur remise de votre pass. Offre non cumulable pour une même personne. Mercredi et samedi de 14h à 16h. Port  casque et gants obligatoires. A partir de 5 ans.
FAISANS DU PARC,Badminton,,94290,VILLENEUVE-LE-ROI,Île-de-France,0145970916,faisanduparc@orange.fr,,Réservation obligatoire. Une séance offerte sur remise de votre pass. Offre non cumulable pour une même personne. A partir de 7 ans.
FAISANS DU PARC,Tennis,,94290,VILLENEUVE-LE-ROI,Île-de-France,0145970916,faisanduparc@orange.fr,,Réservation obligatoire. Une séance offerte sur remise de votre pass. Offre non cumulable pour une même personne. A partir de 7 ans.
FAISANS DU PARC,Tennis de Table,,94290,VILLENEUVE-LE-ROI,Île-de-France,0145970916,faisanduparc@orange.fr,,Réservation obligatoire. Une séance offerte sur remise de votre pass. Offre non cumulable pour une même personne. A partir de 7 ans.
FOREY RURAL JEP,Tennis de Table,,59189,STEENBECQUE,Hauts-de-France,0685223944,Boulangerregis2@outlook.fr ,,Réservation obligatoire. Une séance offerte sur remise de votre pass. Offre non cumulable pour une même personne. A partir de 8 ans.
FOREY RURAL JEP,Tir à l'arc,,59189,STEENBECQUE,Hauts-de-France,0685223944,Boulangerregis2@outlook.fr ,,Réservation obligatoire. Une séance offerte sur remise de votre pass. Offre non cumulable pour une même personne. A partir de 8 ans.
FOX DE CHANTILLY,Football Américain,Stade des Bourgognes,60500,CHANTILLY,Hauts-de-France,,320@fffa.org,,Réservation obligatoire. Une séance offerte sur remise de votre pass. Offre non cumulable pour une même personne. A partir de 8 ans.
FOYER DES JEUNES JEAN VILAR,Tir à l'arc,,10110,BAR-SUR-SEINE,Grand Est,,archers.bar.sur.seine@orange.fr,,Réservation obligatoire. Une séance offerte sur remise de votre pass. Offre non cumulable pour une même personne. A partir de 7 ans. Hors vacances scolaires. 
FOYER RURAL DE BAIXAS,Rythme en famille,,66390,BAIXAS,Occitanie,0695033467,foyerruralbaixas66390@gmail.com,,Réservation obligatoire. Une séance offerte sur remise de votre pass. Offre non cumulable pour une même personne. A partir de 10 ans.
GAGNY ESCRIME LE CONTRE TEMPS,Escrime,Arena de Gagny,93220,GAGNY,Île-de-France,0660517459,fufillion@free.fr,http://www.gagny-escrime.org,Réservation obligatoire. Une séance offerte sur remise de votre pass. Offre non cumulable pour une même personne. Tenue de sport et bouteille d'eau à prévoir. A partir de 7 ans.
GÉMENOS ESCRIME CLUB,Escrime,Espace A. Giraldi – Avenue César Baldaccini,13420,GEMENOS,Provence-Alpes-Côte d'Azur,0673945727,jeremy.yann@neuf.fr,http://www.gemenosescrimeclub.fr,Réservation obligatoire. Une séance offerte sur remise de votre pass. Offre non cumulable pour une même personne. Jours et horaires précisées par le Maître d'Armes. A partir de 7 ans.
GONES DE LYON FFC,Flag Football,Stade de la Sarra,69006,LYON,Auvergne-Rhône-Alpes,,310@fffa.org,,Réservation obligatoire. Une séance offerte sur remise de votre pass. Offre non cumulable pour une même personne. A partir de 6 ans.
HALTERO CLUB MONTILIEN,Haltérophilie,,26200,MONTELIMAR,Auvergne-Rhône-Alpes,0678654593,halteroclubmontilien@gmail.com,,Réservation obligatoire. Une séance offerte sur remise de votre pass. Offre non cumulable pour une même personne. A partir de 8 ans.
HALTEROPHILIE CLUB DE POINTE A PITRE 971,Haltérophilie,,97110,POINTE-À-PITRE,	Guadeloupe,,jean-claude.Collinot@orange.fr,,Réservation obligatoire. Une séance offerte sur remise de votre pass. Offre non cumulable pour une même personne. A partir de 8 ans.
HALTEROPHILIE PONTISSALIENNE,Haltérophilie,,25300,GRANGES NARBOZ,Bourgogne-Franche-Comté,0676972139,contact@halteropontissalienne.com,,Réservation obligatoire. Une séance offerte sur remise de votre pass. Offre non cumulable pour une même personne. A partir de 8 ans.
HAWKS DE LONS LE SAUNIER,Football Américain,Base nautique de Bellecin,39270,ORGELET,Bourgogne-Franche-Comté,,539@fffa.org,,Réservation obligatoire. Une séance offerte sur remise de votre pass. Offre non cumulable pour une même personne. A partir de 8 ans.
HC GRAND COMBIEN,Haltérophilie,,30110,LA GRAND-COMBE,Occitanie,0682330251,gerard.wilczewski@orange.fr,,Réservation obligatoire. Une séance offerte sur remise de votre pass. Offre non cumulable pour une même personne. A partir de 8 ans.
HC PIERRELATTE,Haltérophilie,,26700,PIERRELATTE,Auvergne-Rhône-Alpes,0475042312,jean.claude.boyer8@wanadoo.fr,,Réservation obligatoire. Une séance offerte sur remise de votre pass. Offre non cumulable pour une même personne. A partir de 8 ans.
HC SAVENAY,Hockey sur Gazon,,44260,SAVENAY,Pays de la Loire,,hockeyclubdesavenay@gmail.com,,Réservation obligatoire. Une séance offerte sur remise de votre pass. Offre non cumulable pour une même personne. A partir de 7 ans.
HIGHLANDERS,Football Américain,Plaine de SOBA 46 rue d'archette,88000,EPINAL,Grand Est,,532@fffa.org,,Réservation obligatoire. Une séance offerte sur remise de votre pass. Offre non cumulable pour une même personne. A partir de 8 ans.
HIP HOP ART,Danse,5 rue Saint Just,93210,SAINT DENIS,Île-de-France,0652887987,hip-hop-art@hotmail.fr,,Réservation obligatoire. Une séance offerte sur remise de votre pass. Offre non cumulable pour une même personne. A partir de 7 ans.
HOCKEY CLUB AUCH,Hockey sur Gazon,,32000,AUCH,Occitanie,,hockey.club.auch@gmail.com,,Réservation obligatoire. Une séance offerte sur remise de votre pass. Offre non cumulable pour une même personne. A partir de 6 ans.
HOCKEY CLUB DE DUNKERQUE MALO,Hockey sur Gazon,,59240,DUNKERQUE,Hauts-de-France,,hcdm59@gmail.com,,Réservation obligatoire. Une séance offerte sur remise de votre pass. Offre non cumulable pour une même personne. A partir de 6 ans.
HOCKEY CLUB DE LA POSSESSION,Hockey sur Gazon,,97419,LA POSSESSION,La Réunion ,,hcpossessionreunion@gmail.com,,Réservation obligatoire. Une séance offerte sur remise de votre pass. Offre non cumulable pour une même personne. A partir de 7 ans.
HOCKEY CLUB DE SEGRE,Hockey sur Gazon,,49500,SEGRE,Pays de la Loire,,manue49.dupuis@gmail.com,,Réservation obligatoire. Une séance offerte sur remise de votre pass. Offre non cumulable pour une même personne. A partir de 6 ans.
HOCKEY CLUB DES 2 CAPS,Hockey sur Gazon,,62250,SAINT INGLEVERT,Hauts-de-France,,Hockeyclubdeuxcaps@gmail.com,,Réservation obligatoire. Une séance offerte sur remise de votre pass. Offre non cumulable pour une même personne. A partir de 7 ans.
HOCKEY CLUB DU TREFLE,Hockey sur Gazon,,91640,FONTENAY LES BRIIS,Île-de-France,,contact@hctrefle.com,,Réservation obligatoire. Une séance offerte sur remise de votre pass. Offre non cumulable pour une même personne. A partir de 6 ans.
HOCKEY CLUB FOREZIEN,Hockey sur Gazon,,42600,MONTBRISON,Auvergne-Rhône-Alpes,,hcforezien@yahoo.fr,,Réservation obligatoire. Une séance offerte sur remise de votre pass. Offre non cumulable pour une même personne. A partir de 6 ans.
HOCKEY CLUB GRENOBLE,Hockey sur Gazon,,38000,GRENOBLE,Auvergne-Rhône-Alpes,,grenoble.hockey@gmail.com,,Réservation obligatoire. Une séance offerte sur remise de votre pass. Offre non cumulable pour une même personne. A partir de 6 ans.
HOCKEY CLUB GUILHERAND-GRANGES GRIZZLIES,Hockey sur Gazon,,07500,GUILHERAND GRANGES,Auvergne-Rhône-Alpes,,hockey.club.grizzlies07@gmail.com,,Réservation obligatoire. Une séance offerte sur remise de votre pass. Offre non cumulable pour une même personne. A partir de 7 ans.
HOCKEY CLUB STÉPHANOIS SUR GAZON,Hockey sur Gazon,,42000,ST ETIENNE,Auvergne-Rhône-Alpes,,hcstephanois@yahoo.fr,,Réservation obligatoire. Une séance offerte sur remise de votre pass. Offre non cumulable pour une même personne. A partir de 6 ans.
HOCKEY SPORTING CLUB DE SAINT MAUR DES FOSSES,Hockey sur Gazon,,94100,SAINT MAUR DES FOSSES,Île-de-France,,president@hscsm.fr,,Réservation obligatoire. Une séance offerte sur remise de votre pass. Offre non cumulable pour une même personne. A partir de 6 ans.
HOCKEY SUR GAZON DIJON,Hockey sur Gazon,,21000,DIJON,Bourgogne-Franche-Comté,,hockey.dijon@gmail.com,,Réservation obligatoire. Une séance offerte sur remise de votre pass. Offre non cumulable pour une même personne. A partir de 6 ans.
HORIZON MINI GOLF,Mini-golf,,97311 ,ROURA,Guyane,,contact@les-challenges-bn.fr,,Réservation obligatoire par mail à contact@les-challenges-bn.fr. Une partie pour une personne offerte sur remise de votre pass (2 maximum par famille ou groupe). Offre non cumulable pour une même personne. A partir de 6 ans.
HYBRID ATHLETICS,Haltérophilie,,07130,SAINT-PÉRAY,Auvergne-Rhône-Alpes,0760260318,hybridathletics07@gmail.com,,Réservation obligatoire. Une séance offerte sur remise de votre pass. Offre non cumulable pour une même personne. A partir de 8 ans.
IRIS HOCKEY LAMBERSART,Hockey sur Gazon,,59130,LAMBERSART,Hauts-de-France,,hockey@ihlambersart.fr,,Réservation obligatoire. Une séance offerte sur remise de votre pass. Offre non cumulable pour une même personne. A partir de 6 ans.
JEU DE PISTE SUR LE THÈME DE LA POMME À BEURIÈRES,Jeu de piste ludique,,63220,BEURIÈRES,Auvergne-Rhône-Alpes,,contact@les-challenges-bn.fr,http://www.randoland.fr/bn,"Recevez un code pour télécharger ce parcours et deux autres dans la région de votre choix. Chaque parcours comprend une carte pour se repérer, des jeux à réaliser durant la randonnée pour vitaminer le cerveau et des indices à trouver en observant autour de vous ! Les randonnées se font en autonomie pour s'amuser tout en vivant un moment de partage. Les jeux de piste proposés sont adaptées à l’âge de l’enfant (4/6 ans 7/9 ans et + de 10 ans)."
JEUX TRADITIONNELS DE PAYS ,Palet breton,,35160,MONTFORT-SUR-MEU,Bretagne,0689633653,jeuxtrraditionnelsdepays@gmail.com,,Réservation obligatoire. Une séance offerte sur remise de votre pass. Offre non cumulable pour une même personne. A partir de 11 ans.
JSC VOLLEY,Volley-Ball,42 rue de vienne,72190,COULAINES,Pays de la Loire,0674029304,,https://jsc-volley.clubeo.com/,"Réservation obligatoire. Une séance offerte sur remise de votre pass. Offre non cumulable pour une même personne. Séance du mercredi pour les majeurs, le samedi pour les jeunes. A partir de 8 ans."
KANGOUROUS,Flag Football,Stade Romainville,33600,PESSAC,Nouvelle-Aquitaine,,055@fffa.org,,Réservation obligatoire. Une séance offerte sur remise de votre pass. Offre non cumulable pour une même personne. A partir de 6 ans.
KARUKERA FIGHTING SYSTEM,Boxe Française,,97190,LE GOSIER,	Guadeloupe,0690418883,kanael.hereson@gmail.com,,Réservation obligatoire. Une séance offerte sur remise de votre pass. Offre non cumulable pour une même personne. A partir de 8 ans.
KUMA SAN DOJO,Arts martiaux,,82230,MONCLAR-DE-QUERCY,Occitanie,0611722924,kumasandojo@gmail.com,,Réservation obligatoire. Une séance offerte sur remise de votre pass. Offre non cumulable pour une même personne. A partir de 10 ans.
LA DAME DE FER - AUTOUR DE LA TOUR EIFFEL,Jeu de piste ludique,,75000,PARIS,Île-de-France,,contact@les-challenges-bn.fr,http://www.randoland.fr/bn,"Recevez un code pour télécharger ce parcours et deux autres dans la région de votre choix. Chaque parcours comprend une carte pour se repérer, des jeux à réaliser durant la randonnée pour vitaminer le cerveau et des indices à trouver en observant autour de vous ! Les randonnées se font en autonomie pour s'amuser tout en vivant un moment de partage. Les jeux de piste proposés sont adaptées à l’âge de l’enfant (4/6 ans 7/9 ans et + de 10 ans)."
LA FLECHE HOCKEY CLUB,Hockey sur Gazon,,72200,FLECHE,Pays de la Loire,,laflechehockeyclub@gmail.com,,Réservation obligatoire. Une séance offerte sur remise de votre pass. Offre non cumulable pour une même personne. A partir de 6 ans.
LA NORVILLE AIKIBUDO,Aikibudo,Salle Louis Namy / Av. Anatole France,91290,LA NORVILLE ,Île-de-France,,benjaminpiau@gmail.com,,Réservation obligatoire. Une séance offerte sur remise de votre pass. Offre non cumulable pour une même personne. A partir de 8 ans.
LA SAVATE VALAYSIENNE,Boxe Française,,70140,VALAY,Bourgogne-Franche-Comté,,claude70140@gmail.com,,Réservation obligatoire. Une séance offerte sur remise de votre pass. Offre non cumulable pour une même personne. A partir de 7 ans.
LANGROEZ ARC,Tir à l'arc,,56250,LA VRAIE-CROIX,Bretagne,,contact.langroezarc@gmail.com,,Réservation obligatoire. Une séance offerte sur remise de votre pass. Offre non cumulable pour une même personne. A partir de 7 ans. Hors vacances scolaires. 
L'AS DU RING LINSELLES,Boxe Française,,59126,LINSELLES,Hauts-de-France,,lasduring.linselles@gmail.com,https://ameliebentara.wixsite.com/lasduring,Réservation obligatoire. Une séance offerte sur remise de votre pass. Offre non cumulable pour une même personne. A partir de 7 ans.
LASER GAME EVOLUTION,Laser Game,28 rue de Cracovie,21850,SAINT APOLLINAIRE,Bourgogne-Franche-Comté,0380235573,,https://dijon.lasergame-evolution.fr,Réservation obligatoire. Une partie pour une personne offerte sur remise de votre pass. Offre non cumulable pour une même personne. Deux pass (un adulte et un enfant) maximum par groupe. A partir de 8 ans.
LE CARQUOIS D'ARGENT,Tir à l'arc,,02000,LAON,Hauts-de-France,,f.vandepontseele@lecarquoisdargent.com,,Réservation obligatoire. Une séance offerte sur remise de votre pass. Offre non cumulable pour une même personne. A partir de 7 ans. Hors vacances scolaires. 
LE GINGKO AIKIDO CLUB,Aikido,68 Chemin Des Gonnardieres - Complexe Sportif,38560,CHAMP SUR DRAC ,Auvergne-Rhône-Alpes,,patstef@orange.fr,,Réservation obligatoire. Une séance offerte sur remise de votre pass. Offre non cumulable pour une même personne. A partir de 8 ans.
LE MASQUE DE FER DE LYON,Escrime,41 rue Crillon,69006,LYON,Auvergne-Rhône-Alpes,0658612281,presidence@masquedefer.com,http://www.masquedefer.com,Réservation obligatoire. Une séance offerte sur remise de votre pass. Offre non cumulable pour une même personne. A partir de 6 ans. Le matériel est prêté pour les séances dans la mesure des tailles disponibles. Séances accessibles à un public en fauteuil (matériel adapté à cette pratique). Le club est ouvert toute la semaine ainsi que le Samedi matin de 10h30- 13h00. Fermeture durant les vacances scolaires.
LE MINOTAURE,Cheerleading,Stade de la Musau,67100,STRASBOURG,Grand Est,,151@fffa.org,,Réservation obligatoire. Une séance offerte sur remise de votre pass. Offre non cumulable pour une même personne. A partir de 6 ans.
LE VOLANT HAGETMAUTIEN,Badminton,,40700 ,HAGETMAU,Nouvelle-Aquitaine,,petjogi@yahoo.fr,,Réservation obligatoire. Une séance offerte sur remise de votre pass. Offre non cumulable pour une même personne. A partir de 6 ans.
LES AIGLES ROUGES,Flag Football,Stade Lafayette,06340,TRINITE,Provence-Alpes-Côte d'Azur,,621@fffa.org,,Réservation obligatoire. Une séance offerte sur remise de votre pass. Offre non cumulable pour une même personne. A partir de 6 ans.
LES ARCHERS BRIENNOIS,Tir à l'arc,,10500,BRIENNE-LE-CHÂTEAU,Grand Est,,lesarchersbriennois@orange.fr,,Réservation obligatoire. Une séance offerte sur remise de votre pass. Offre non cumulable pour une même personne. A partir de 7 ans. Hors vacances scolaires. 
LES ARCHERS CHEVIGNOIS,Tir à l'arc,,21600,LONGVIC,Bourgogne-Franche-Comté,,lesarcherschevignois@gmail.com,,Réservation obligatoire. Une séance offerte sur remise de votre pass. Offre non cumulable pour une même personne. A partir de 7 ans. Hors vacances scolaires. 
LES ARCHERS DE CORBAS,Tir à l'arc,,69960,CORBAS,Auvergne-Rhône-Alpes,,archerscorbas@gmail.com,,Réservation obligatoire. Une séance offerte sur remise de votre pass. Offre non cumulable pour une même personne. A partir de 7 ans. Hors vacances scolaires. 
LES ARCHERS DES ECRINS,Tir à l'arc,,05120,L'ARGENTIÈRE-LA-BESSÉE,Provence-Alpes-Côte d'Azur,,lesarchersdesecrins@gmail.com,,Réservation obligatoire. Une séance offerte sur remise de votre pass. Offre non cumulable pour une même personne. A partir de 7 ans. Hors vacances scolaires. 
LES ARCHERS DU GRAND JARDIN,Tir à l'arc,,83230,BORMES-LES-MIMOSAS,Provence-Alpes-Côte d'Azur,,lesarchersdugrandjardin@gmail.com,,Réservation obligatoire. Une séance offerte sur remise de votre pass. Offre non cumulable pour une même personne. A partir de 7 ans. Hors vacances scolaires. 
LES ARCHERS DU MARAIS,Tir à l'arc,,50500,AUVERS,Normandie,,archers-du-marais@hotmail.fr,,Réservation obligatoire. Une séance offerte sur remise de votre pass. Offre non cumulable pour une même personne. A partir de 7 ans. Hors vacances scolaires. 
LES ARCHERS DU MONT BLANC,Tir à l'arc,,74190,PASSY,Auvergne-Rhône-Alpes,,archersdumontblanc@gmail.com,,Réservation obligatoire. Une séance offerte sur remise de votre pass. Offre non cumulable pour une même personne. A partir de 7 ans. Hors vacances scolaires. 
LES ARCHERS DU VESINET-CHATOU,Tir à l'arc,,78400,CHATOU,Île-de-France,,direction@archersduvesinetchatou.fr,,Réservation obligatoire. Une séance offerte sur remise de votre pass. Offre non cumulable pour une même personne. A partir de 7 ans. Hors vacances scolaires. 
LES ARCHERS FLORENTAIS,Tir à l'arc,,49410,MAUGES-SUR-LOIRE,Pays de la Loire,,archersflorentais@outlook.fr,,Réservation obligatoire. Une séance offerte sur remise de votre pass. Offre non cumulable pour une même personne. A partir de 7 ans. Hors vacances scolaires. 
LES ARCHERS PIRIACAIS,Tir à l'arc,,44420,MESQUER,Pays de la Loire,,les.archers.piriacais@gmail.com,,Réservation obligatoire. Une séance offerte sur remise de votre pass. Offre non cumulable pour une même personne. A partir de 7 ans. Hors vacances scolaires. 
LES FLÈCHES DE L'ORB,Tir à l'arc,,34370,CAZOULS-LES-BEZIERS,Occitanie,0609613967,lesflechesdelorb@gmail.com,,Réservation obligatoire. Une séance offerte sur remise de votre pass. Offre non cumulable pour une même personne. A partir de 8 ans.
LES FLECHES DE SAINT BARTHELEMY,Tir à l'arc,,97133,ST BARTHELEMY,	Guadeloupe,,lesflechessbh@gmail.com,,Réservation obligatoire. Une séance offerte sur remise de votre pass. Offre non cumulable pour une même personne. A partir de 6 ans.
LES FOUS DU VOLANT DE L'ONDAINE,Badminton,,42500,LE CHAMBON-FEUGEROLLES,Auvergne-Rhône-Alpes,0698117790,Fvo42@outlook.fr,,Réservation obligatoire. Une séance offerte sur remise de votre pass. Offre non cumulable pour une même personne. A partir de 7 ans.
LES GRIZZLYS CATALANS,Flag Football,Parc des sports Alain Mimoun,66000,PERPIGNAN,Occitanie,,493@fffa.org,,Réservation obligatoire. Une séance offerte sur remise de votre pass. Offre non cumulable pour une même personne. A partir de 6 ans.
LES MARSHALS DE MACON,Football Américain,Complexe Sportif Jules Revillon,71000,FLACE,Bourgogne-Franche-Comté,,552@fffa.org,,Réservation obligatoire. Une séance offerte sur remise de votre pass. Offre non cumulable pour une même personne. A partir de 8 ans.
LES PEAUX ROUGES DE MIOS,Football Américain,Stade Paulon,33380,MIOS,Nouvelle-Aquitaine,,502@fffa.org,,Réservation obligatoire. Une séance offerte sur remise de votre pass. Offre non cumulable pour une même personne. A partir de 8 ans.
LES SHARKS,Football Américain,Stade des Baumes,26000,VALENCE,Auvergne-Rhône-Alpes,,256@fffa.org,,Réservation obligatoire. Une séance offerte sur remise de votre pass. Offre non cumulable pour une même personne. A partir de 8 ans.
LES SPECTRES DE SENS,Flag Football,Terrain Spectres rue René Binet,89100,SENS,Bourgogne-Franche-Comté,,640@fffa.org,,Réservation obligatoire. Une séance offerte sur remise de votre pass. Offre non cumulable pour une même personne. A partir de 6 ans.
LES TRICOLORES DE LOCHRIST,Boxe Française,,56650,INZINZAC-LOCHRIST,Bretagne,,savate.lochrist@yahoo.com,,Réservation obligatoire. Une séance offerte sur remise de votre pass. Offre non cumulable pour une même personne. A partir de 7 ans.
LIBERATEURS,Flag Football,Stade de la Mittelhart,68000,COLMAR,Grand Est,,336@fffa.org,,Réservation obligatoire. Une séance offerte sur remise de votre pass. Offre non cumulable pour une même personne. A partir de 6 ans.
LICORNES,Flag Football,Complexe de Steredenn,22440,PLOUFRAGAN,Bretagne,,260@fffa.org,,Réservation obligatoire. Une séance offerte sur remise de votre pass. Offre non cumulable pour une même personne. A partir de 6 ans.
LILLE METROPOLE HOCKEY CLUB,Hockey sur Gazon,,59000,LILLE,Hauts-de-France,,lillehc@gmail.com,,Réservation obligatoire. Une séance offerte sur remise de votre pass. Offre non cumulable pour une même personne. A partir de 6 ans.
LIONS DE CARVIN,Football Américain,Terrain du Lep,62220,CARVIN,Hauts-de-France,,345@fffa.org,,Réservation obligatoire. Une séance offerte sur remise de votre pass. Offre non cumulable pour une même personne. A partir de 8 ans.
LOISIR OISON BADMINTON,Badminton,,27370 ,LA SAUSSAYE,Normandie,,didierfreal@gmail.com,,Réservation obligatoire. Une séance offerte sur remise de votre pass. Offre non cumulable pour une même personne. A partir de 6 ans.
LONGUENESSE BADMINTON,Badminton,,62500,SAINT MARTIN LES TATINGHEM,Hauts-de-France,,longuenessebad@gmail.com,,Réservation obligatoire. Une séance offerte sur remise de votre pass. Offre non cumulable pour une même personne. A partir de 6 ans.
LYCANS,Cheerleading,Stade Léo Lagrange,78130,LES MUREAUX,Île-de-France,,316@fffa.org,,Réservation obligatoire. Une séance offerte sur remise de votre pass. Offre non cumulable pour une même personne. A partir de 6 ans.
MADELEINE SPORTS ET DÉTENTE CHARTRES,Hockey sur Gazon,,28000,CHARTRES,Centre-Val de Loire,,lucien.levier@wanadoo.fr,,Réservation obligatoire. Une séance offerte sur remise de votre pass. Offre non cumulable pour une même personne. A partir de 6 ans.
MAGIDOJO 48 AIKIDO MONTMAGNY,Aikido,Gymnase Charles Grimaud,95360,MONTMAGNY,Île-de-France,,magidojo5@gmail.com,,Réservation obligatoire. Une séance offerte sur remise de votre pass. Offre non cumulable pour une même personne. A partir de 8 ans.
MAGNY BADMINTON,Badminton,,78114 ,MAGNY LE HAMEAU,Île-de-France,,zinfos@magnybadminton.fr,,Réservation obligatoire. Une séance offerte sur remise de votre pass. Offre non cumulable pour une même personne. A partir de 6 ans.
MAISONS-LAFFITTE HOCKEY CLUB,Hockey sur Gazon,,78600,MAISONS-LAFFITTE,Île-de-France,,mlhockeyclub@gmail.com,,Réservation obligatoire. Une séance offerte sur remise de votre pass. Offre non cumulable pour une même personne. A partir de 6 ans.
MARINERS,Cheerleading,Stade du Foso,56000,VANNES,Bretagne,,295@fffa.org,,Réservation obligatoire. Une séance offerte sur remise de votre pass. Offre non cumulable pour une même personne. A partir de 6 ans.
MARSEILLE ESCRIME CLUB,Escrime,33A rue Crillon,13005,MARSILLE,Provence-Alpes-Côte d'Azur,0491255556,contact@marseille-escrime.com,http://www.marseille-escrime.com,Réservation obligatoire. Une séance offerte sur remise de votre pass. Offre non cumulable pour une même personne. A partir de 6 ans.
"MARTIGUES, LA CÔTE BLEUE",Jeu de piste ludique,,13500,MARTIGUES,Provence-Alpes-Côte d'Azur,,contact@les-challenges-bn.fr,http://www.randoland.fr/bn,"Recevez un code pour télécharger ce parcours et deux autres dans la région de votre choix. Chaque parcours comprend une carte pour se repérer, des jeux à réaliser durant la randonnée pour vitaminer le cerveau et des indices à trouver en observant autour de vous ! Les randonnées se font en autonomie pour s'amuser tout en vivant un moment de partage. Les jeux de piste proposés sont adaptées à l’âge de l’enfant (4/6 ans 7/9 ans et + de 10 ans)."
MER HOCKEY CLUB,Hockey sur Gazon,,41500,MER,Centre-Val de Loire,,merhockeyclub@yahoo.fr,,Réservation obligatoire. Une séance offerte sur remise de votre pass. Offre non cumulable pour une même personne. A partir de 6 ans.
MFA HURRICANES,Flag Football,Stade de Sabathe,34070,MONTPELLIER,Occitanie,,218@fffa.org,,Réservation obligatoire. Une séance offerte sur remise de votre pass. Offre non cumulable pour une même personne. A partir de 6 ans.
MILLAS BOXE,Boxe Française,,66170,MILLAS,Occitanie,0626999764,jeanpierreguillemet66@gmail.com,,Réservation obligatoire. Une séance offerte sur remise de votre pass. Offre non cumulable pour une même personne. A partir de 7 ans.
MINI GOLF DE CHELLES,Mini-golf,Parc du Vieux Moulin,77500,CHELLES,Île-de-France,0619597227,,,"Une partie pour une personne offerte sur remise de votre pass. 2 pass maximum par groupe. Fermé en temps de forte pluie ou de canicule. A partir de 6 ans.Ouvert le mercredi, samedi, dimanche de 13h à 19h en période scolaire. Du lundi au dimanche en période de vacances scolaires."
MINI RANDONNÉE EN FAMILLE À SÉDERON,Jeu de piste ludique,,26560,SÉDERON,Auvergne-Rhône-Alpes,,contact@les-challenges-bn.fr,http://www.randoland.fr/bn,"Recevez un code pour télécharger ce parcours et deux autres dans la région de votre choix. Chaque parcours comprend une carte pour se repérer, des jeux à réaliser durant la randonnée pour vitaminer le cerveau et des indices à trouver en observant autour de vous ! Les randonnées se font en autonomie pour s'amuser tout en vivant un moment de partage. Les jeux de piste proposés sont adaptées à l’âge de l’enfant (4/6 ans 7/9 ans et + de 10 ans)."
MONTIVILLIERS ESCRIME,Escrime,,76290,MONTIVILLIERS,Normandie,0678470723,montivilliersescrime@gmail.com,https://www.montivilliers-escrime.com/,Réservation obligatoire. Une séance offerte sur remise du pass. Fermeture durant les vacances scolaires. Tenue de sport et chaussures de sports intérieurs obligatoires. Offre non cumulable pour une même personne. A partir de 5 ans.
MOUSQUETAIRES,Football Américain,Stade des Bruyeres,92290,CHATENAY-MALABRY,Île-de-France,,011@fffa.org,,Réservation obligatoire. Une séance offerte sur remise de votre pass. Offre non cumulable pour une même personne. A partir de 8 ans.
MUSCULATION ET FORME DE BERTHECOURT,Haltérophilie,,60370,BERTHECOURT,Hauts-de-France,0612332932,mfberthecourt@gmail.com,,Réservation obligatoire. Une séance offerte sur remise de votre pass. Offre non cumulable pour une même personne. A partir de 8 ans.
NICE HOCKEY CLUB GAZON ET SALLE,Hockey sur Gazon,,06200,NICE,Hauts-de-France,,secretariat.nhcgs@gmail.com,,Réservation obligatoire. Une séance offerte sur remise de votre pass. Offre non cumulable pour une même personne. A partir de 6 ans.
OLEMPS BADMINTON CLUB,Badminton,,12000 ,OLEMPS,Occitanie,,bad.olemps@gmail.com,,Réservation obligatoire. Une séance offerte sur remise de votre pass. Offre non cumulable pour une même personne. A partir de 6 ans.
"ORAISON, LAC DES BUISSONNADES",Jeu de piste ludique,,04700,ORAISON,Provence-Alpes-Côte d'Azur,,contact@les-challenges-bn.fr,http://www.randoland.fr/bn,"Recevez un code pour télécharger ce parcours et deux autres dans la région de votre choix. Chaque parcours comprend une carte pour se repérer, des jeux à réaliser durant la randonnée pour vitaminer le cerveau et des indices à trouver en observant autour de vous ! Les randonnées se font en autonomie pour s'amuser tout en vivant un moment de partage. Les jeux de piste proposés sont adaptées à l’âge de l’enfant (4/6 ans 7/9 ans et + de 10 ans)."
PAGAIES EN SEINE,Canoe Kayak,,76240,BELBEUF,Normandie,0235232615,contact@pagaiesenseine.fr,,Réservation obligatoire. Une séance offerte sur remise de votre pass. Offre non cumulable pour une même personne. A partir de 8 ans. Impératif de savoir nager 25 mètres.
PARIS JEAN BOUIN CLUB ATHLETIQUE SPORTS GENERAUX,Hockey sur Gazon,,75016,PARIS,Île-de-France,,inscription.hockey@parisjeanbouin.fr,,Réservation obligatoire. Une séance offerte sur remise de votre pass. Offre non cumulable pour une même personne. A partir de 6 ans.
PATRIOTES,Football Américain,Stade du Waldeck,68400,RIEDISHEIM,Grand Est,,184@fffa.org,,Réservation obligatoire. Une séance offerte sur remise de votre pass. Offre non cumulable pour une même personne. A partir de 8 ans.
PENDRAGONS,Football Américain,Complexe sportif,95570,ATTAINVILLE,Île-de-France,,268@fffa.org,,Réservation obligatoire. Une séance offerte sur remise de votre pass. Offre non cumulable pour une même personne. A partir de 8 ans.
PHOENIX BOXE MARSEILLE,Boxe Française,,13000,MARSEILLE,Provence-Alpes-Côte d'Azur,,melabraoui@yahoo.fr,,Réservation obligatoire. Une séance offerte sur remise de votre pass. Offre non cumulable pour une même personne. A partir de 7 ans.
PINS-JUSTARET VILLATE TENNIS DE TABLE ,Tennis de Table,,31860,PINS-JUSTARET,Occitanie,0786236872,Claude.boscher31@orange.fr ,,Réservation obligatoire. Une séance offerte sur remise de votre pass. Offre non cumulable pour une même personne. A partir de 5 ans.
PIRATES,Football Américain,Complexe Sportif Charles Lefebvre,76370,ROUXMESNIL-BOUTEILLES,Normandie,,327@fffa.org,,Réservation obligatoire. Une séance offerte sur remise de votre pass. Offre non cumulable pour une même personne. A partir de 8 ans.
PLURIEN AK DEVELOPPEMENT,Aikido,25 Rue Des Rochettes,22430,ERQUY  ,Bretagne,,thierryriedinger.aiki22@gmail.com,,Réservation obligatoire. Une séance offerte sur remise de votre pass. Offre non cumulable pour une même personne. A partir de 8 ans.
PORNICHET AIKIDO CLUB,Aikido,"9, Avenue Des Loriettes",44380,PORNICHET ,Pays de la Loire,,pornichet.aikido.club@free.fr,,Réservation obligatoire. Une séance offerte sur remise de votre pass. Offre non cumulable pour une même personne. A partir de 8 ans.
POSEIDONS FOOTBALL AMERICAIN,Football Américain,Stade de Monbeton,03300,CUSSET,Auvergne-Rhône-Alpes,,629@fffa.org,,Réservation obligatoire. Une séance offerte sur remise de votre pass. Offre non cumulable pour une même personne. A partir de 8 ans.
PROMENADE LUDIQUE FAMILIAL À LA CROIX-SAINT-LEUFROY,Jeu de piste ludique,,27490,LA CROIX-SAINT-LEUFROY,Normandie,,contact@les-challenges-bn.fr,http://www.randoland.fr/bn,"Recevez un code pour télécharger ce parcours et deux autres dans la région de votre choix. Chaque parcours comprend une carte pour se repérer, des jeux à réaliser durant la randonnée pour vitaminer le cerveau et des indices à trouver en observant autour de vous ! Les randonnées se font en autonomie pour s'amuser tout en vivant un moment de partage. Les jeux de piste proposés sont adaptées à l’âge de l’enfant (4/6 ans 7/9 ans et + de 10 ans)."
PROMENADE LUDIQUE FAMILIAL À SAINT-PIERRE-DE-BAILLEUL,Jeu de piste ludique,,27920,SAINT-PIERRE-DE-BAILLEUL,Normandie,,contact@les-challenges-bn.fr,http://www.randoland.fr/bn,"Recevez un code pour télécharger ce parcours et deux autres dans la région de votre choix. Chaque parcours comprend une carte pour se repérer, des jeux à réaliser durant la randonnée pour vitaminer le cerveau et des indices à trouver en observant autour de vous ! Les randonnées se font en autonomie pour s'amuser tout en vivant un moment de partage. Les jeux de piste proposés sont adaptées à l’âge de l’enfant (4/6 ans 7/9 ans et + de 10 ans)."
PROMENADE LUDIQUE SUR UN ESPACE NATUREL SENSIBLE,Jeu de piste ludique,,60128,LA PIERRE MONCONSEIL,Hauts-de-France,,contact@les-challenges-bn.fr,http://www.randoland.fr/bn,"Recevez un code pour télécharger ce parcours et deux autres dans la région de votre choix. Chaque parcours comprend une carte pour se repérer, des jeux à réaliser durant la randonnée pour vitaminer le cerveau et des indices à trouver en observant autour de vous ! Les randonnées se font en autonomie pour s'amuser tout en vivant un moment de partage. Les jeux de piste proposés sont adaptées à l’âge de l’enfant (4/6 ans 7/9 ans et + de 10 ans)."
RACING CLUB DE FRANCE HOCKEY SUR GAZON,Hockey sur Gazon,,78000,VERSAILLES,Île-de-France,,rcfhockey92@gmail.com,,Réservation obligatoire. Une séance offerte sur remise de votre pass. Offre non cumulable pour une même personne. A partir de 6 ans.
RANDONNÉE LUDIQUE ET FAMILIALE À SAINT-JEAN-DU-GARD,Jeu de piste ludique,,30270,SAINT-JEAN-DU-GARD,Occitanie,,contact@les-challenges-bn.fr,http://www.randoland.fr/bn,"Recevez un code pour télécharger ce parcours et deux autres dans la région de votre choix. Chaque parcours comprend une carte pour se repérer, des jeux à réaliser durant la randonnée pour vitaminer le cerveau et des indices à trouver en observant autour de vous ! Les randonnées se font en autonomie pour s'amuser tout en vivant un moment de partage. Les jeux de piste proposés sont adaptées à l’âge de l’enfant (4/6 ans 7/9 ans et + de 10 ans)."
RENEGADES AMERICAN FOOTBALL CLUB 05,Flag Football,,05000,LA SAULCE,Provence-Alpes-Côte d'Azur,,588@fffa.org,,Réservation obligatoire. Une séance offerte sur remise de votre pass. Offre non cumulable pour une même personne. A partir de 6 ans.
RUGBY CLUB BROCELIANDE OUST,Rugby,"Lieu-dit La Suais, route de Malestroit",56460,SERENT,Bretagne,0664810577,rcbo.rugby@gmail.com,http://rcbo-serent.ffr.fr,Réservation obligatoire. Trois séances offertes sur remise du pass. Offre non cumulable pour une même personne. A partir de 8 ans.
SAINT ETIENNE ARTS MARTIAUX,Aikido,22 Allee Chantegrillet,42100,SAINT ETIENNE ,Auvergne-Rhône-Alpes,,sainteartsmartiaux@gmail.com,,Réservation obligatoire. Une séance offerte sur remise de votre pass. Offre non cumulable pour une même personne. A partir de 8 ans.
SAINT MARTIN ARCHERS CLUB,Tir à l'arc,,89100,SAINT-MARTIN-DU-TERTRE,Bourgogne-Franche-Comté,,saintmartinarchersclub89@gmail.com,,Réservation obligatoire. Une séance offerte sur remise de votre pass. Offre non cumulable pour une même personne. A partir de 7 ans. Hors vacances scolaires. 
SAINT MICHEL TAEKWONDO 91,Taekwondo,,91240,SAINT MICHEL SUR ORGE,Île-de-France,0751630096,smt91240@gmail.com,,Réservation obligatoire. Une séance offerte sur remise du pass. Offre non cumulable pour une même personne. . A partir de 8 ans.
SAINT PAUL GYM,Gym douce,,87260,SAINT PAUL,Nouvelle-Aquitaine,0664451846,stpaulgym87260@gmail.com,,Réservation obligatoire. Une séance offerte sur remise de votre pass. Offre non cumulable pour une même personne. A partir de 12 ans.
SAINT PAUL GYM,Renforcement musculaire,9 Rue du stade ,87260,SAINT PAUL,Nouvelle-Aquitaine,0664451846,stpaulgym87260@gmail.com,,Réservation obligatoire. Une séance offerte sur remise de votre pass. Offre non cumulable pour une même personne. A partir de 14 ans.
SAINT PAUL GYM,Yoga,9 Rue du stade ,87260,SAINT PAUL,Nouvelle-Aquitaine,0664451846,stpaulgym87260@gmail.com,,Réservation obligatoire. Une séance offerte sur remise de votre pass. Offre non cumulable pour une même personne. A partir de 12 ans.
SAINT PIERRE D'ALBIGNY BADMINTON,Badminton,,73250,SAINT PIERRE D'ALBIGNY,Auvergne-Rhône-Alpes,,spabad73@gmail.com,,Réservation obligatoire. Une séance offerte sur remise de votre pass. Offre non cumulable pour une même personne. A partir de 6 ans.
"SAINTE-SUZANNE, PERLE DU MAINE",Jeu de piste ludique,,53270,SAINTE-SUZANNE,Pays de la Loire,,contact@les-challenges-bn.fr,http://www.randoland.fr/bn,"Recevez un code pour télécharger ce parcours et deux autres dans la région de votre choix. Chaque parcours comprend une carte pour se repérer, des jeux à réaliser durant la randonnée pour vitaminer le cerveau et des indices à trouver en observant autour de vous ! Les randonnées se font en autonomie pour s'amuser tout en vivant un moment de partage. Les jeux de piste proposés sont adaptées à l’âge de l’enfant (4/6 ans 7/9 ans et + de 10 ans)."
SAINT-FRANCOIS-LONGCHAMP LES PAQUIERS - LES CLOCHETTES,Jeu de piste ludique,,73130,SAINT-FRANCOIS-LONGCHAMP,Auvergne-Rhône-Alpes,,contact@les-challenges-bn.fr,http://www.randoland.fr/bn,"Recevez un code pour télécharger ce parcours et deux autres dans la région de votre choix. Chaque parcours comprend une carte pour se repérer, des jeux à réaliser durant la randonnée pour vitaminer le cerveau et des indices à trouver en observant autour de vous ! Les randonnées se font en autonomie pour s'amuser tout en vivant un moment de partage. Les jeux de piste proposés sont adaptées à l’âge de l’enfant (4/6 ans 7/9 ans et + de 10 ans)."
SAINT-GERMAIN HOCKEY CLUB,Hockey sur Gazon,,78100,SAINT GERMAIN EN LAYE,Île-de-France,,secretariat@saint-germain-hockey.fr,,Réservation obligatoire. Une séance offerte sur remise de votre pass. Offre non cumulable pour une même personne. A partir de 6 ans.
SALON DE PROVENCE H.C,Hockey sur Gazon,,13300,SALON-DE-PROVENCE,Provence-Alpes-Côte d'Azur,,president.shc13@gmail.com,,Réservation obligatoire. Une séance offerte sur remise de votre pass. Offre non cumulable pour une même personne. A partir de 6 ans.
SANCHIRO CLUB,Aikido,17 Rue Leopold Bellan,75002,PARIS ,Île-de-France,,patrick.benezi@sfr.fr,,Réservation obligatoire. Une séance offerte sur remise de votre pass. Offre non cumulable pour une même personne. A partir de 8 ans.
SANNOIS GEMS CHEERLEALDING,Cheerleading,Palais des Sports,95110,SANNOIS,Île-de-France,,482@fffa.org,,Réservation obligatoire. Une séance offerte sur remise de votre pass. Offre non cumulable pour une même personne. A partir de 6 ans.
SAS LMD IMPRESA,Haltérophilie,,20600,BASTIA,Corse,0626883546,contact@crossfitbastia.com,,Réservation obligatoire. Une séance offerte sur remise de votre pass. Offre non cumulable pour une même personne. A partir de 8 ans.
SAVATE BOXING CLUB  BERRY,Boxe Française,,18230,SAINT-DOULCHARD,Centre-Val de Loire,0248690152,christgilbert@free.fr,http://www.sbcb.fr,Réservation obligatoire. Une séance offerte sur remise de votre pass. Offre non cumulable pour une même personne. A partir de 7 ans.
SAVATE PASSION BOXE FRANÇAISE,Boxe Française,,06110,LE CANNET,Provence-Alpes-Côte d'Azur,,savatepassion@gmail.com,,Réservation obligatoire. Une séance offerte sur remise de votre pass. Offre non cumulable pour une même personne. A partir de 7 ans.
SAVATE PAYS DE GEX,Boxe Française,,01280,PRÉVESSIN-MOËNS,Auvergne-Rhône-Alpes,,savatepaysdegex@gmail.com,,Réservation obligatoire. Une séance offerte sur remise de votre pass. Offre non cumulable pour une même personne. A partir de 7 ans.
SBDF ACADEMIE,Boxe Française,,26200,MONTÉLIMAR,Auvergne-Rhône-Alpes,,sbdfacademie@gmail.com,https://www.sbdfacademie.com,Réservation obligatoire. Une séance offerte sur remise de votre pass. Offre non cumulable pour une même personne. A partir de 7 ans.
SCO LONGUENEE HOCKEY,Hockey sur Gazon,,49000,ANGERS,Pays de la Loire,,emmanuel.leray@hockeyscoangers.fr,,Réservation obligatoire. Une séance offerte sur remise de votre pass. Offre non cumulable pour une même personne. A partir de 6 ans.
SEAGULLS,Flag Football,Terrain d'entrainement rue Guillaume Appolinaire,62100,CALAIS,Hauts-de-France,,343@fffa.org,,Réservation obligatoire. Une séance offerte sur remise de votre pass. Offre non cumulable pour une même personne. A partir de 6 ans.
SEYROKU SAMURAI,Aikido,75 Avenue Voltaire,97300,CAYENNE ,Guyane,,bellyjah@hotmail.fr,,Réservation obligatoire. Une séance offerte sur remise de votre pass. Offre non cumulable pour une même personne. A partir de 8 ans.
SIMON AUDREY COACH SPORTIF,Pilates,1c Rue Beausejour,85220,SAINT MAIXENT SUR VIE,Pays de la Loire,0695125455,simon_audrey@hotmail.fr,,Réservation obligatoire. Une séance offerte sur remise du pass. Offre non cumulable pour une même personne.  A partir de 14 ans.
SKOL GOUREN AR FAOUED,Lutte - Gouren,Cours carré - Salle de Gymnastique,56320,LE FAOUET,Bretagne,,annemariegloaguen@free.fr,,Réservation obligatoire. Une séance offerte sur remise de votre pass. Offre non cumulable pour une même personne. A partir de 5 ans.
SKOL GOUREN BEAR,Lutte - Gouren,Salle de lutte - Stade Adrien Hamon,22140,BEGARD,Bretagne,,skolgourenbear@gmail.com,,Réservation obligatoire. Une séance offerte sur remise de votre pass. Offre non cumulable pour une même personne. A partir de 5 ans.
SKOL GOUREN BREST,Lutte - Gouren,Gymnase Kerbonne - 25 rue Paul Bert,29200,BREST,Bretagne,,skolgourenbrest@orange.fr,,Réservation obligatoire. Une séance offerte sur remise de votre pass. Offre non cumulable pour une même personne. A partir de 5 ans.
SKOL GOUREN BRO DOL,Lutte - Gouren,Salle annexe des arts martiaux de Dol,35120,DOL DE BRETAGNE,Bretagne,,skol-gouren.bro-dol@outlook.fr,,Réservation obligatoire. Une séance offerte sur remise de votre pass. Offre non cumulable pour une même personne. A partir de 5 ans.
SKOL GOUREN KEMPER,Lutte - Gouren,"Halle des Sports de Penhars, 1 rue de Kerlan Vihan",29000,QUIMPER,Bretagne,,skolgourenkemper@gmail.com,,Réservation obligatoire. Une séance offerte sur remise de votre pass. Offre non cumulable pour une même personne. A partir de 5 ans.
SKOL GOUREN LOUERGAD,Lutte - Gouren,Kergoz Escodans Combat,22540,LOUARGAT,Bretagne,,skolgourenlouergad@orange.fr,,Réservation obligatoire. Une séance offerte sur remise de votre pass. Offre non cumulable pour une même personne. A partir de 5 ans.
SKOL GOUREN MONTERFIL,Lutte - Gouren,Salle de la vieille Forge,35160,MONTERFIL,Bretagne,,skolgourenmonterfil@gouren.bzh,,Réservation obligatoire. Une séance offerte sur remise de votre pass. Offre non cumulable pour une même personne. A partir de 5 ans.
SKOL GOUREN PLESLIN TRIGAVOU,Lutte - Gouren,"Salle Omnisports - 12, L'Orme",22490,PLESLIN-TRIGAVOU,Bretagne,,skol.gouren.pleslin.trigavou@gmail.com,,Réservation obligatoire. Une séance offerte sur remise de votre pass. Offre non cumulable pour une même personne. A partir de 4 ans.
SKOL GOUREN PLUNERET,Lutte - Gouren,Salle associative Gilles Servat MERIADEC,56400,PLUNERET,Bretagne,,gourenpluneret@gmail.com,,Réservation obligatoire. Une séance offerte sur remise de votre pass. Offre non cumulable pour une même personne. A partir de 5 ans.
SKOL GOUREN SAINT SENOUX,Lutte - Gouren,"Salle de motricité - école des Korrigans - 3, rue Cercliers",35580,SAINT-SENOUX,Bretagne,,skolgourensaintsenoux@gmail.com,,Réservation obligatoire. Une séance offerte sur remise de votre pass. Offre non cumulable pour une même personne. A partir de 5 ans.
SKOL GOUREN SENOLF,Lutte - Gouren,Complexe sportif Tro Heol (Tournesol),56250,SAINT NOLFF,Bretagne,,mike.boisson2@gmail.com,,Réservation obligatoire. Une séance offerte sur remise de votre pass. Offre non cumulable pour une même personne. A partir de 5 ans.
SO SPORTS EVASION,Multisports enfants,Salle Bellevue - 14 Rue Descartes,35400,SAINT MALO,Bretagne,0630180765,sosportsevasion@gmail.com,,Réservation obligatoire. Une séance offerte sur remise de votre pass. Offre non cumulable pour une même personne. A partir de 4 ans.
SO SPORTS EVASION,Musculation,"Rue Salvador Allende, 35400 Saint-Malo",35400,SAINT MALO,Bretagne,0630180765,sosportsevasion@gmail.com,https://sosportsevasion.s2.yapla.com/fr/,Réservation obligatoire. Une séance offerte sur remise de votre pass. Offre non cumulable pour une même personne. A partir de 14 ans.
SO SPORTS EVASION,Renforcement musculaire,Salle de quartier de la Madeleine et de Rotheneuf,35400,SAINT MALO,Bretagne,0630180765,sosportsevasion@gmail.com,,Réservation obligatoire. Une séance offerte sur remise de votre pass. Offre non cumulable pour une même personne. A partir de 14 ans.
SO SPORTS EVASION,VTT ados adultes,,35400,SAINT MALO,Bretagne,0630180765,sosportsevasion@gmail.com,,Réservation obligatoire. Une séance offerte sur remise de votre pass. Offre non cumulable pour une même personne. A partir de 14 ans.
SOCIETE CULTURELLE OMNISPORTS DE SAINTE MARGUERITE,Hockey sur Gazon,,13009,MARSEILLE 09,Provence-Alpes-Côte d'Azur,,hockey.scomarseille@laposte.net,,Réservation obligatoire. Une séance offerte sur remise de votre pass. Offre non cumulable pour une même personne. A partir de 6 ans.
SOCIETE DE L'ARC DE DOLE,Tir à l'arc,,39100,DOLE,Bourgogne-Franche-Comté,,societearcdole@gmail.com,,Réservation obligatoire. Une séance offerte sur remise de votre pass. Offre non cumulable pour une même personne. A partir de 7 ans. Hors vacances scolaires. 
SPARTIATES,Flag Football,Stade du Grand Marais,80000,AMIENS,Hauts-de-France,,064@fffa.org,,Réservation obligatoire. Une séance offerte sur remise de votre pass. Offre non cumulable pour une même personne. A partir de 6 ans.
SPORT ENJOY 05,Zumba,,05600,GUILLESTRE,Provence-Alpes-Côte d'Azur,0788608593,sportenjoy05@gmail.com,,"Réservation obligatoire. Une séance offerte sur remise de votre pass. Offre non cumulable pour une même personne. A partir de 5 ans. Prévoir une paire de basket, une gourde et un tapis."
SPORT SANTÉ EN LUBERON ,Cheerleading,,84400,APT,Provence-Alpes-Côte d'Azur,0659025498,mssenluberon@gmail.com,,Réservation obligatoire. Une séance offerte sur remise de votre pass. Offre non cumulable pour une même personne. A partir de 7 ans.
SPORTIFELECOUR BRUNOY,Boxe Française,,91800,BRUNOY,Île-de-France,,rguibert74@gmail.com,,Réservation obligatoire. Une séance offerte sur remise de votre pass. Offre non cumulable pour une même personne. A partir de 7 ans.
STADE LAVALLOIS,Hockey sur Gazon,,53000,LAVAL,Pays de la Loire,,stadelavalloishockey@gmail.com,,Réservation obligatoire. Une séance offerte sur remise de votre pass. Offre non cumulable pour une même personne. A partir de 6 ans.
STALLIONS,Cheerleading,Terrain Louis Bechu,53000,LAVAL,Pays de la Loire,,403@fffa.org,,Réservation obligatoire. Une séance offerte sur remise de votre pass. Offre non cumulable pour une même personne. A partir de 6 ans.
STRASBOURG HOCKEY CLUB J.S.K.,Hockey sur Gazon,,67400,ILLKIRCH-GRAFFENSTADEN,Grand Est,,pierre.rabu@ipcms.unistra.fr,,Réservation obligatoire. Une séance offerte sur remise de votre pass. Offre non cumulable pour une même personne. A partir de 6 ans.
SUD SAVATE DEFENSE,Boxe Française,,97224,DUCOS,Martinique ,,sudsavatedef@gmail.com,,Réservation obligatoire. Une séance offerte sur remise de votre pass. Offre non cumulable pour une même personne. A partir de 8 ans.
SUR UN AIR DE COUNTRY MUSIC ,Jeu de piste ludique,,32300,MIRANDE,Occitanie,,contact@les-challenges-bn.fr,http://www.randoland.fr/bn,"Recevez un code pour télécharger ce parcours et deux autres dans la région de votre choix. Chaque parcours comprend une carte pour se repérer, des jeux à réaliser durant la randonnée pour vitaminer le cerveau et des indices à trouver en observant autour de vous ! Les randonnées se font en autonomie pour s'amuser tout en vivant un moment de partage. Les jeux de piste proposés sont adaptées à l’âge de l’enfant (4/6 ans 7/9 ans et + de 10 ans)."
SWIM STARS,Sensibilisation à l'eau,2 Avenue Baquis,06000,NICE,Provence-Alpes-Côte d'Azur,,contact@les-challenges-bn.fr,https://swimstars.co/piscines/nice-musiciens/,1 cours découverte Bébé-nageur. Enfant de 4 mois à 3 ans. Réservation en ligne obligatoire avec le code unique que vous recevrez par mail.
SWIM STARS,Sensibilisation à l'eau,CC Albitrecia Chemin de Falconaja,20200,LUPINO,Corse,,contact@les-challenges-bn.fr,https://swimstars.co/piscines/bastia-lupino/,1 cours découverte Bébé-nageur. Enfant de 4 mois à 3 ans. Réservation en ligne obligatoire avec le code unique que vous recevrez par mail.
SWIM STARS,Sensibilisation à l'eau,"Route de la Canonica, Lieu-dit Crucetta",20290 ,LUCCIANA,Corse,,contact@les-challenges-bn.fr,https://swimstars.co/piscines/lucciana/,1 cours découverte Bébé-nageur. Enfant de 4 mois à 3 ans. Réservation en ligne obligatoire avec le code unique que vous recevrez par mail.
SWIM STARS,Sensibilisation à l'eau,9 bis Rue de la Cochais,22100,DINAN,Bretagne,,contact@les-challenges-bn.fr,https://swimstars.co/piscines/dinan/,1 cours découverte Bébé-nageur. Enfant de 4 mois à 3 ans. Réservation en ligne obligatoire avec le code unique que vous recevrez par mail.
SWIM STARS,Sensibilisation à l'eau,17 Parc des Tilleuls,51370,THILLOIS,Grand Est,,contact@les-challenges-bn.fr,https://swimstars.co/piscines/reims/,1 cours découverte Bébé-nageur. Enfant de 4 mois à 3 ans. Réservation en ligne obligatoire avec le code unique que vous recevrez par mail.
SWIM STARS,Sensibilisation à l'eau,1 rue Jean-Marie Pelt,33380 ,MIOS,Nouvelle-Aquitaine,,contact@les-challenges-bn.fr,https://swimstars.co/piscines/mios/,1 cours découverte Bébé-nageur. Enfant de 4 mois à 3 ans. Réservation en ligne obligatoire avec le code unique que vous recevrez par mail.
SWIM STARS,Sensibilisation à l'eau,5 Rue Hipparque,33700 ,MERIGNAC,Nouvelle-Aquitaine,,contact@les-challenges-bn.fr,https://swimstars.co/piscines/merignac/,1 cours découverte Bébé-nageur. Enfant de 4 mois à 3 ans. Réservation en ligne obligatoire avec le code unique que vous recevrez par mail.
SWIM STARS,Sensibilisation à l'eau,14 Allée du Cadran,64600,ANGLET,Nouvelle-Aquitaine,,contact@les-challenges-bn.fr,https://swimstars.co/piscines/anglet/,1 cours découverte Bébé-nageur. Enfant de 4 mois à 3 ans. Réservation en ligne obligatoire avec le code unique que vous recevrez par mail.
SWIM STARS,Sensibilisation à l'eau,2 Rue du Bourg Nouveau,35000,RENNES,Bretagne,,contact@les-challenges-bn.fr,https://swimstars.co/piscines/rennes/,1 cours découverte Bébé-nageur. Enfant de 4 mois à 3 ans. Réservation en ligne obligatoire avec le code unique que vous recevrez par mail.
SWIM STARS,Sensibilisation à l'eau,58 av. Miroir aux Fées,35400,SAINT-MALO,Bretagne,,contact@les-challenges-bn.fr,https://swimstars.co/piscines/saint-malo/,1 cours découverte Bébé-nageur. Enfant de 4 mois à 3 ans. Réservation en ligne obligatoire avec le code unique que vous recevrez par mail.
SWIM STARS,Sensibilisation à l'eau,6 rue des résiniers,40130,CAPBRETON,Nouvelle-Aquitaine,,contact@les-challenges-bn.fr,https://swimstars.co/piscines/capbreton/,1 cours découverte Bébé-nageur. Enfant de 4 mois à 3 ans. Réservation en ligne obligatoire avec le code unique que vous recevrez par mail.
SWIM STARS,Sensibilisation à l'eau,26 rue Docteur Émile Roux,56000,VANNES,Bretagne,,contact@les-challenges-bn.fr,https://swimstars.co/piscines/vannes/,1 cours découverte Bébé-nageur. Enfant de 4 mois à 3 ans. Réservation en ligne obligatoire avec le code unique que vous recevrez par mail.
SWIM STARS,Sensibilisation à l'eau,520 Av. de Dunkerque,59160,LILLE -LOMME,Hauts-de-France,,contact@les-challenges-bn.fr,https://swimstars.co/piscines/lomme-lille/,1 cours découverte Bébé-nageur. Enfant de 4 mois à 3 ans. Réservation en ligne obligatoire avec le code unique que vous recevrez par mail.
SWIM STARS,Sensibilisation à l'eau,29 Rue Henri Barbusse,59220,FACHES-THUMESNIL,Hauts-de-France,,contact@les-challenges-bn.fr,https://swimstars.co/piscines/faches-thumesnil/,1 cours découverte Bébé-nageur. Enfant de 4 mois à 3 ans. Réservation en ligne obligatoire avec le code unique que vous recevrez par mail.
SWIM STARS,Sensibilisation à l'eau,6 Place Lucie et Raymond Aubrac,63000,CLERMONT-FERRAND,Auvergne-Rhône-Alpes,,contact@les-challenges-bn.fr,https://swimstars.co/piscines/clermont-ferrand-estaing/,1 cours découverte Bébé-nageur. Enfant de 4 mois à 3 ans. Réservation en ligne obligatoire avec le code unique que vous recevrez par mail.
SWIM STARS,Sensibilisation à l'eau,85 Av. de la Légion Tchèque,64100,BAYONNE,Nouvelle-Aquitaine,,contact@les-challenges-bn.fr,https://swimstars.co/piscines/bayonne/,1 cours découverte Bébé-nageur. Enfant de 4 mois à 3 ans. Réservation en ligne obligatoire avec le code unique que vous recevrez par mail.
SWIM STARS,Sensibilisation à l'eau,310 Rue Paul Laurent,30900,NIMES,Occitanie,,contact@les-challenges-bn.fr,https://swimstars.co/piscines/nimes/,1 cours découverte Bébé-nageur. Enfant de 4 mois à 3 ans. Réservation en ligne obligatoire avec le code unique que vous recevrez par mail.
SWIM STARS,Sensibilisation à l'eau,11 Rue Blaise Pascal,74600 ,SEYNOD,Auvergne-Rhône-Alpes,,contact@les-challenges-bn.fr,https://swimstars.co/piscines/seynod/,1 cours découverte Bébé-nageur. Enfant de 4 mois à 3 ans. Réservation en ligne obligatoire avec le code unique que vous recevrez par mail.
SWIM STARS,Sensibilisation à l'eau,160 Rue Oberkampf,75011,PARIS,Île-de-France,,contact@les-challenges-bn.fr,https://swimstars.co/piscines/paris-oberkampf/,1 cours découverte Bébé-nageur. Enfant de 4 mois à 3 ans. Réservation en ligne obligatoire avec le code unique que vous recevrez par mail.
SWIM STARS,Sensibilisation à l'eau,27 rue de Paris,77320,LA FERTE GAUCHER,Île-de-France,,contact@les-challenges-bn.fr,https://swimstars.co/piscines/la-ferte-gaucher/,1 cours découverte Bébé-nageur. Enfant de 4 mois à 3 ans. Réservation en ligne obligatoire avec le code unique que vous recevrez par mail.
SWIM STARS,Sensibilisation à l'eau,3 rue de la Découverte,77600,CHANTELOUP EN BRIE,Île-de-France,,contact@les-challenges-bn.fr,https://swimstars.co/piscines/chanteloup-en-brie/,1 cours découverte Bébé-nageur. Enfant de 4 mois à 3 ans. Réservation en ligne obligatoire avec le code unique que vous recevrez par mail.
SWIM STARS,Sensibilisation à l'eau,Chemin aux Boeufs,78121,CRESPIÈRES,Île-de-France,,contact@les-challenges-bn.fr,https://swimstars.co/piscines/crespieres/,1 cours découverte Bébé-nageur. Enfant de 4 mois à 3 ans. Réservation en ligne obligatoire avec le code unique que vous recevrez par mail.
SWIM STARS,Sensibilisation à l'eau,45 Rue des Taillades,81990,LE SEQUESTRE,Occitanie,,contact@les-challenges-bn.fr,https://swimstars.co/piscines/albi/,1 cours découverte Bébé-nageur. Enfant de 4 mois à 3 ans. Réservation en ligne obligatoire avec le code unique que vous recevrez par mail.
SWIM STARS,Sensibilisation à l'eau,382 Chemin de l'Huide,83110,SANARY SUR MER,Provence-Alpes-Côte d'Azur,,contact@les-challenges-bn.fr,https://swimstars.co/piscines/sanary/,1 cours découverte Bébé-nageur. Enfant de 4 mois à 3 ans. Réservation en ligne obligatoire avec le code unique que vous recevrez par mail.
SWIM STARS,Sensibilisation à l'eau,5 Rue de l'Europe Piscine municipale,91380,CHILLY MAZARIN,Île-de-France,,contact@les-challenges-bn.fr,https://swimstars.co/piscines/chilly-mazarin/,1 cours découverte Bébé-nageur. Enfant de 4 mois à 3 ans. Réservation en ligne obligatoire avec le code unique que vous recevrez par mail.
SWIM STARS,Sensibilisation à l'eau,"122 rue Aristide Briand,",95330,DOMONT,Île-de-France,,contact@les-challenges-bn.fr,https://swimstars.co/piscines/domont/,1 cours découverte Bébé-nageur. Enfant de 4 mois à 3 ans. Réservation en ligne obligatoire avec le code unique que vous recevrez par mail.
SWIM STARS,Sensibilisation à l'eau,10 avenue Ampère,78180,MONTIGNY LE BRETONNEUX,Île-de-France,,contact@les-challenges-bn.fr,https://swimstars.co/piscines/montigny-le-bretonneux/,1 cours découverte Bébé-nageur. Enfant de 4 mois à 3 ans. Réservation en ligne obligatoire avec le code unique que vous recevrez par mail.
TEAM MARSEILLE BLUE STARS,Cheerleading,Stade Saint Jérôme,13014,MARSEILLE 14,Provence-Alpes-Côte d'Azur,,159@fffa.org,,Réservation obligatoire. Une séance offerte sur remise de votre pass. Offre non cumulable pour une même personne. A partir de 6 ans.
TEAM POLLUX FLAYOSCAIS,Boxe Française,,83780,FLAYOSC,Provence-Alpes-Côte d'Azur,0494703846,team.pollux@wanadoo.fr,,Réservation obligatoire. Une séance offerte sur remise de votre pass. Offre non cumulable pour une même personne. A partir de 7 ans.
TEMPLIERS,Flag Football,Complexe Sportif Europe,78990,ELANCOURT,Île-de-France,,063@fffa.org,,Réservation obligatoire. Une séance offerte sur remise de votre pass. Offre non cumulable pour une même personne. A partir de 6 ans.
TIGRES,Flag Football,Complexe des Aiguillettes,54600,VILLERS-LES-NANCY,Grand Est,,062@fffa.org,,Réservation obligatoire. Une séance offerte sur remise de votre pass. Offre non cumulable pour une même personne. A partir de 6 ans.
TIR A L'ARC COURCHELETTES,Tir à l'arc,,59552,COURCHELETTES,Hauts-de-France,,seblarcher@laposte.net,,Réservation obligatoire. Une séance offerte sur remise de votre pass. Offre non cumulable pour une même personne. A partir de 7 ans. Hors vacances scolaires. 
TONIC CLUB SULLY SUR LOIRE,Haltérophilie,,45600,SULLY SUR LOIRE,Centre-Val de Loire,0625038977,tonicmuscu45@gmail.com,,Réservation obligatoire. Une séance offerte sur remise de votre pass. Offre non cumulable pour une même personne. A partir de 8 ans.
TONNERRE DE BREST,Cheerleading,Complexe Sportif du Bergot SCAM Marine,29200,BREST,Bretagne,,273@fffa.org,,Réservation obligatoire. Une séance offerte sur remise de votre pass. Offre non cumulable pour une même personne. A partir de 6 ans.
TOULOUSE FOOTBALL AMERICAIN : LES OURS,Cheerleading,Stade des Argoulets,31500,TOULOUSE,Occitanie,,051@fffa.org,,Réservation obligatoire. Une séance offerte sur remise de votre pass. Offre non cumulable pour une même personne. A partir de 6 ans.
TOURS HOCKEY CLUB,Hockey sur Gazon,,37000,TOURS,Centre-Val de Loire,,tourshockeyclub37@outlook.fr,,Réservation obligatoire. Une séance offerte sur remise de votre pass. Offre non cumulable pour une même personne. A partir de 6 ans.
ULTIMATE SPIRIT TIGER CHEERLEADING VILLENAVAIS,Cheerleading,Salle de Bocage,33140,VILLENAVE D ORNON,Nouvelle-Aquitaine,,481@fffa.org,,Réservation obligatoire. Une séance offerte sur remise de votre pass. Offre non cumulable pour une même personne. A partir de 6 ans.
UNION SPORTIVE CRESTOISE HOCKEY SUR GAZON,Hockey sur Gazon,,26400,CREST,Auvergne-Rhône-Alpes,,brindilleboxeuse@gmail.com,,Réservation obligatoire. Une séance offerte sur remise de votre pass. Offre non cumulable pour une même personne. A partir de 6 ans.
UNION SPORTIVE MÉTROPOLITAINE DES TRANSPORTS,Hockey sur Gazon,,92160,ANTONY,Île-de-France,,hockey@us-metro.org,,Réservation obligatoire. Une séance offerte sur remise de votre pass. Offre non cumulable pour une même personne. A partir de 6 ans.
UNION SPORTIVE POINTE DES GALETS,Hockey sur Gazon,,97420,LE PORT,La Réunion ,,gabinlakia@wanadoo.fr,,Réservation obligatoire. Une séance offerte sur remise de votre pass. Offre non cumulable pour une même personne. A partir de 7 ans.
US CRETEIL HMF,Haltérophilie,,94380,BONNEUIL-SUR-MARNE,Île-de-France,,irfaan.burahee@yahoo.fr,,Réservation obligatoire. Une séance offerte sur remise de votre pass. Offre non cumulable pour une même personne. A partir de 8 ans.
USB JU-JUTSU ,Ju Jutsu,,33110,LE BOUSCAT,Nouvelle-Aquitaine,0670615306,marc.guasch.7@gmail.com,,Réservation obligatoire. Une séance offerte sur remise de votre pass. Offre non cumulable pour une même personne. A partir de 6 ans.
USM MALAKOFF,Yoga,3 place du 14 juillet,92240,MALAKOFF                                    ,Île-de-France,0147467701,contact@usmmalakoff.fr,,Réservation obligatoire. Une séance offerte sur remise de votre pass. Offre non cumulable pour une même personne. A partir de 12 ans.
USPG HOCKEY,Hockey sur Gazon,,97420,LE PORT,La Réunion ,,gabinlakia@wanadoo.fr,,Réservation obligatoire. Une séance offerte sur remise de votre pass. Offre non cumulable pour une même personne. A partir de 6 ans.
VENERQUE BOXE FRANCAISE,Boxe Française,,31810,VENERQUE,Occitanie,,Venerque.bf@gmail.com,,Réservation obligatoire. Une séance offerte sur remise de votre pass. Offre non cumulable pour une même personne. A partir de 7 ans.
VERTICAL'ART CHEVALERET,Escalade,,75013,PARIS,Île-de-France,,contact@les-challenges-bn.fr,,Réservation en ligne obligatoire avec le code unique que vous recevrez par mail. Une entrée offerte. Offre non cumulable pour une même personne. A partir de 8 ans.
VERTICAL'ART LE MANS,Escalade,,72100,LE MANS,Pays de la Loire,,contact@les-challenges-bn.fr,,Réservation en ligne obligatoire avec le code unique que vous recevrez par mail. Une entrée offerte. Offre non cumulable pour une même personne. A partir de 8 ans.
VERTICAL'ART LILLE,Escalade,,59260,LEZENNES,Hauts-de-France,,contact@les-challenges-bn.fr,,Réservation en ligne obligatoire avec le code unique que vous recevrez par mail. Une entrée offerte. Offre non cumulable pour une même personne. A partir de 8 ans.
VERTICAL'ART LYON,Escalade,,69800 ,SAINT PRIEST,Auvergne-Rhône-Alpes,,contact@les-challenges-bn.fr,,Réservation en ligne obligatoire avec le code unique que vous recevrez par mail. Une entrée offerte. Offre non cumulable pour une même personne. A partir de 8 ans.
VERTICAL'ART NANTES,Escalade,,44300,NANTES,Pays de la Loire,,contact@les-challenges-bn.fr,,Réservation en ligne obligatoire avec le code unique que vous recevrez par mail. Une entrée offerte. Offre non cumulable pour une même personne. A partir de 8 ans.
VERTICAL'ART PIGALLE,Escalade,,75018,PARIS,Île-de-France,,contact@les-challenges-bn.fr,,Réservation en ligne obligatoire avec le code unique que vous recevrez par mail. Une entrée offerte. Offre non cumulable pour une même personne. A partir de 8 ans.
VERTICAL'ART RUNGIS,Escalade,,94150,RUNGIS,Île-de-France,,contact@les-challenges-bn.fr,,Réservation en ligne obligatoire avec le code unique que vous recevrez par mail. Une entrée offerte. Offre non cumulable pour une même personne. A partir de 8 ans.
VERTICAL'ART SAINT QUENTIN EN YVELINES,Escalade,,78180,MONTIGNY LE BRETONNEUX,Île-de-France,,contact@les-challenges-bn.fr,,Réservation en ligne obligatoire avec le code unique que vous recevrez par mail. Une entrée offerte. Offre non cumulable pour une même personne. A partir de 8 ans.
VERTICAL'ART TOULON,Escalade,,83160,VALETTE DU VAR,Provence-Alpes-Côte d'Azur,,contact@les-challenges-bn.fr,,Réservation en ligne obligatoire avec le code unique que vous recevrez par mail. Une entrée offerte. Offre non cumulable pour une même personne. A partir de 8 ans.
VILLIERS LE BEL HOCKEY CLUB,Hockey sur Gazon,,95720,BOUQUEVAL,Île-de-France,,vbhc@hotmail.fr,,Réservation obligatoire. Une séance offerte sur remise de votre pass. Offre non cumulable pour une même personne. A partir de 6 ans.
VISITE LUDIQUE DE LA CITÉ MÉDIÉVAL DE SÉVÉRAC-LE-CHATEAU,Jeu de piste ludique,,12150,SÉVÉRAC-LE-CHÂTEAU,Occitanie,,contact@les-challenges-bn.fr,http://www.randoland.fr/bn,"Recevez un code pour télécharger ce parcours et deux autres dans la région de votre choix. Chaque parcours comprend une carte pour se repérer, des jeux à réaliser durant la randonnée pour vitaminer le cerveau et des indices à trouver en observant autour de vous ! Les randonnées se font en autonomie pour s'amuser tout en vivant un moment de partage. Les jeux de piste proposés sont adaptées à l’âge de l’enfant (4/6 ans 7/9 ans et + de 10 ans)."
VOLANT STÉPHANOIS BADMINTON,Badminton,,82410 ,SAINT ETIENNE DE TULMONT,Occitanie,,lahoreau@wanadoo.fr,,Réservation obligatoire. Une séance offerte sur remise de votre pass. Offre non cumulable pour une même personne. A partir de 6 ans.
WAR EAGLES,Flag Football,Terrain de Teyran,34820,TEYRAN,Occitanie,,559@fffa.org,,Réservation obligatoire. Une séance offerte sur remise de votre pass. Offre non cumulable pour une même personne. A partir de 6 ans.
WILDBOARS CHARLEVILLE MEZIERES,Football Américain,Complexe de la Warenne,08000,CHARLEVILLE-MEZIERES,Grand Est,,563@fffa.org,,Réservation obligatoire. Une séance offerte sur remise de votre pass. Offre non cumulable pour une même personne. A partir de 8 ans.
YOGA ENFANT BS,Yoga Enfant online,,06000,NICE,Provence-Alpes-Côte d'Azur,,contact@les-challenges-bn.fr,,Recevez un code pour visionner cette vidéo exclusive et partager un moment de yoga avec votre enfant. A partir de 4 ans.
YOGA ENFANT BS,Yoga Enfant online,,08200,SEDAN,Grand Est,,contact@les-challenges-bn.fr,,Recevez un code pour visionner cette vidéo exclusive et partager un moment de yoga avec votre enfant. A partir de 4 ans.
YOGA ENFANT BS,Yoga Enfant online,,13000,MARSEILLE,Provence-Alpes-Côte d'Azur,,contact@les-challenges-bn.fr,,Recevez un code pour visionner cette vidéo exclusive et partager un moment de yoga avec votre enfant. A partir de 4 ans.
YOGA ENFANT BS,Yoga Enfant online,,21000,DIJON,Bourgogne-Franche-Comté,,contact@les-challenges-bn.fr,,Recevez un code pour visionner cette vidéo exclusive et partager un moment de yoga avec votre enfant. A partir de 4 ans.
YOGA ENFANT BS,Yoga Enfant online,,28000,CHARTRES,Centre-Val de Loire,,contact@les-challenges-bn.fr,,Recevez un code pour visionner cette vidéo exclusive et partager un moment de yoga avec votre enfant. A partir de 4 ans.
YOGA ENFANT BS,Yoga Enfant online,,31000,TOULOUSE,Occitanie,,contact@les-challenges-bn.fr,,Recevez un code pour visionner cette vidéo exclusive et partager un moment de yoga avec votre enfant. A partir de 4 ans.
YOGA ENFANT BS,Yoga Enfant online,,33000,BORDEAUX,Nouvelle-Aquitaine,,contact@les-challenges-bn.fr,,Recevez un code pour visionner cette vidéo exclusive et partager un moment de yoga avec votre enfant. A partir de 4 ans.
YOGA ENFANT BS,Yoga Enfant online,,34000,MONTPELLIER,Occitanie,,contact@les-challenges-bn.fr,,Recevez un code pour visionner cette vidéo exclusive et partager un moment de yoga avec votre enfant. A partir de 4 ans.
YOGA ENFANT BS,Yoga Enfant online,,35000,RENNES,Bretagne,,contact@les-challenges-bn.fr,,Recevez un code pour visionner cette vidéo exclusive et partager un moment de yoga avec votre enfant. A partir de 4 ans.
YOGA ENFANT BS,Yoga Enfant online,,42000,SAINT ETIENNE,Auvergne-Rhône-Alpes,,contact@les-challenges-bn.fr,,Recevez un code pour visionner cette vidéo exclusive et partager un moment de yoga avec votre enfant. A partir de 4 ans.
YOGA ENFANT BS,Yoga Enfant online,,44000,NANTES,Pays de la Loire,,contact@les-challenges-bn.fr,,Recevez un code pour visionner cette vidéo exclusive et partager un moment de yoga avec votre enfant. A partir de 4 ans.
YOGA ENFANT BS,Yoga Enfant online,,51100,REIMS,Grand Est,,contact@les-challenges-bn.fr,,Recevez un code pour visionner cette vidéo exclusive et partager un moment de yoga avec votre enfant. A partir de 4 ans.
YOGA ENFANT BS,Yoga Enfant online,,59000,LILLE,Hauts-de-France,,contact@les-challenges-bn.fr,,Recevez un code pour visionner cette vidéo exclusive et partager un moment de yoga avec votre enfant. A partir de 4 ans.
YOGA ENFANT BS,Yoga Enfant online,,63000,CLERMONT FERRAND,Auvergne-Rhône-Alpes,,contact@les-challenges-bn.fr,,Recevez un code pour visionner cette vidéo exclusive et partager un moment de yoga avec votre enfant. A partir de 4 ans.
YOGA ENFANT BS,Yoga Enfant online,,67000,STRASBOURG,Grand Est,,contact@les-challenges-bn.fr,,Recevez un code pour visionner cette vidéo exclusive et partager un moment de yoga avec votre enfant. A partir de 4 ans.
YOGA ENFANT BS,Yoga Enfant online,,69000,LYON,Auvergne-Rhône-Alpes,,contact@les-challenges-bn.fr,,Recevez un code pour visionner cette vidéo exclusive et partager un moment de yoga avec votre enfant. A partir de 4 ans.
YOGA ENFANT BS,Yoga Enfant online,,75000,PARIS,Île-de-France,,contact@les-challenges-bn.fr,,Recevez un code pour visionner cette vidéo exclusive et partager un moment de yoga avec votre enfant. A partir de 4 ans.
YOGA ENFANT BS,Yoga Enfant online,,76000,ROUEN,Normandie,,contact@les-challenges-bn.fr,,Recevez un code pour visionner cette vidéo exclusive et partager un moment de yoga avec votre enfant. A partir de 4 ans.
YOGA ENFANT BS,Yoga Enfant online,,77000,MELUN,Île-de-France,,contact@les-challenges-bn.fr,,Recevez un code pour visionner cette vidéo exclusive et partager un moment de yoga avec votre enfant. A partir de 4 ans.
YOGA ENFANT BS,Yoga Enfant online,,78000,VERSAILLES,Île-de-France,,contact@les-challenges-bn.fr,,Recevez un code pour visionner cette vidéo exclusive et partager un moment de yoga avec votre enfant. A partir de 4 ans.
YOGA ENFANT BS,Yoga Enfant online,,85000,LA ROCHE SUR YON,Pays de la Loire,,contact@les-challenges-bn.fr,,Recevez un code pour visionner cette vidéo exclusive et partager un moment de yoga avec votre enfant. A partir de 4 ans.
YOGA ENFANT BS,Yoga Enfant online,,87000,LIMOGES,Nouvelle-Aquitaine,,contact@les-challenges-bn.fr,,Recevez un code pour visionner cette vidéo exclusive et partager un moment de yoga avec votre enfant. A partir de 4 ans.
YOGA ENFANT BS,Yoga Enfant online,,91000,EVRY,Île-de-France,,contact@les-challenges-bn.fr,,Recevez un code pour visionner cette vidéo exclusive et partager un moment de yoga avec votre enfant. A partir de 4 ans.
YOGA ENFANT BS,Yoga Enfant online,,92000,NANTERRE,Île-de-France,,contact@les-challenges-bn.fr,,Recevez un code pour visionner cette vidéo exclusive et partager un moment de yoga avec votre enfant. A partir de 4 ans.
YOGA ENFANT BS,Yoga Enfant online,,94000,CRETEIL,Île-de-France,,contact@les-challenges-bn.fr,,Recevez un code pour visionner cette vidéo exclusive et partager un moment de yoga avec votre enfant. A partir de 4 ans.
YOGA ENFANT BS,Yoga Enfant online,,97122,BAIE MAHAULT,	Guadeloupe,,contact@les-challenges-bn.fr,,Recevez un code pour visionner cette vidéo exclusive et partager un moment de yoga avec votre enfant. A partir de 4 ans.
YOGA ENFANT BS,Yoga Enfant online,,97232,LE LAMENTIN,Martinique ,,contact@les-challenges-bn.fr,,Recevez un code pour visionner cette vidéo exclusive et partager un moment de yoga avec votre enfant. A partir de 4 ans.
YOGA ENFANT BS,Yoga Enfant online,,97300,CAYENNE ,Guyane,,contact@les-challenges-bn.fr,,Recevez un code pour visionner cette vidéo exclusive et partager un moment de yoga avec votre enfant. A partir de 4 ans.
YOGA ENFANT BS,Yoga Enfant online,,97400,SAINT DENIS,La Réunion ,,contact@les-challenges-bn.fr,,Recevez un code pour visionner cette vidéo exclusive et partager un moment de yoga avec votre enfant. A partir de 4 ans.
